{"countryCodes":[{"name":"अंगूलिया","dial_code":"+1 264","code":"AI"},{"name":"अंगोला","dial_code":"+244","code":"AO"},{"name":"अंटार्कटिका","dial_code":"","code":"AQ"},{"name":"अंडोरा","dial_code":"+376","code":"AD"},{"name":"अज़रबैजान","dial_code":"+994","code":"AZ"},{"name":"अफ़ग़ानिस्तान","dial_code":"+93","code":"AF"},{"name":"अमेरिकी समोआ","dial_code":"+1 684","code":"AS"},{"name":"अरूबा","dial_code":"+297","code":"AW"},{"name":"अर्जेंटीना","dial_code":"+54","code":"AR"},{"name":"अल साल्वाडोर","dial_code":"+503","code":"SV"},{"name":"अल्जीरिया","dial_code":"+213","code":"DZ"},{"name":"अल्बानिया","dial_code":"+355","code":"AL"},{"name":"आइल ऑफ़ मैन","dial_code":"+44","code":"IM"},{"name":"आइसलैंड","dial_code":"+354","code":"IS"},{"name":"आयरलैंड","dial_code":"+353","code":"IE"},{"name":"आर्मीनिया","dial_code":"+374","code":"AM"},{"name":"इंडोनेशिया","dial_code":"+62","code":"ID"},{"name":"इक्वाडोर","dial_code":"+593","code":"EC"},{"name":"इक्वेटोरियल गिनी","dial_code":"+240","code":"GQ"},{"name":"इज़राइल","dial_code":"+972","code":"IL"},{"name":"इज़राइल","dial_code":"+972","code":"IL"},{"name":"इटली","dial_code":"+39","code":"IT"},{"name":"इथियोपिया","dial_code":"+251","code":"ET"},{"name":"इराक","dial_code":"+964","code":"IQ"},{"name":"इरिट्रिया","dial_code":"+291","code":"ER"},{"name":"ईरान, इस्लामिक रिपब्लिक","dial_code":"+98","code":"IR"},{"name":"उज़्बेकिस्तान","dial_code":"+998","code":"UZ"},{"name":"उत्तरी मारीयाना द्वीपसमूह","dial_code":"+1 670","code":"MP"},{"name":"उरुग्वे","dial_code":"+598","code":"UY"},{"name":"एंटीगुआ और बारबुडा","dial_code":"+1268","code":"AG"},{"name":"एस्तोनिया","dial_code":"+372","code":"EE"},{"name":"ऑस्ट्रिया","dial_code":"+43","code":"AT"},{"name":"ऑस्ट्रेलिया","dial_code":"+61","code":"AU"},{"name":"ओमान","dial_code":"+968","code":"OM"},{"name":"कंबोडिया","dial_code":"+855","code":"KH"},{"name":"कज़ाकस्तान","dial_code":"+7 7","code":"KZ"},{"name":"कतर","dial_code":"+974","code":"QA"},{"name":"कनाडा","dial_code":"+1","code":"CA"},{"name":"कांगो","dial_code":"+242","code":"CG"},{"name":"कांगो, लोकतांत्रिक गणराज्य","dial_code":"+243","code":"CD"},{"name":"किरिबाती","dial_code":"+686","code":"KI"},{"name":"किर्गिज़स्तान","dial_code":"+996","code":"KG"},{"name":"कुक द्वीपसमूह","dial_code":"+682","code":"CK"},{"name":"कुवैत","dial_code":"+965","code":"KW"},{"name":"केन्या","dial_code":"+254","code":"KE"},{"name":"केप वर्ड","dial_code":"+238","code":"CV"},{"name":"केमैन द्वीपसमूह","dial_code":"+ 345","code":"KY"},{"name":"कैमरून","dial_code":"+237","code":"CM"},{"name":"कोकोस (कीलिंग) द्वीपसमूह","dial_code":"+61","code":"CC"},{"name":"कोटे डिलवोइर","dial_code":"+225","code":"CI"},{"name":"कोमरोस","dial_code":"+269","code":"KM"},{"name":"कोरिया गणराज्य","dial_code":"+82","code":"KR"},{"name":"कोरिया, प्रजातांत्रिक जनवादी गणराज्य","dial_code":"+850","code":"KP"},{"name":"कोलंबिया","dial_code":"+57","code":"CO"},{"name":"कोस्टा रिका","dial_code":"+506","code":"CR"},{"name":"क्यूबा","dial_code":"+53","code":"CU"},{"name":"क्रिसमस द्वीप","dial_code":"+61","code":"CX"},{"name":"क्रोएशिया","dial_code":"+385","code":"HR"},{"name":"गयाना","dial_code":"+595","code":"GY"},{"name":"गिनी","dial_code":"+224","code":"GN"},{"name":"गिनी-बिसाऊ","dial_code":"+245","code":"GW"},{"name":"गुवाम","dial_code":"+1 671","code":"GU"},{"name":"गैबॉन","dial_code":"+241","code":"GA"},{"name":"गैम्बिया","dial_code":"+220","code":"GM"},{"name":"ग्रीनलैंड","dial_code":"+299","code":"GL"},{"name":"ग्रेनेडा","dial_code":"+1 473","code":"GD"},{"name":"ग्वाटेमाला","dial_code":"+502","code":"GT"},{"name":"ग्वाडेलोप","dial_code":"+590","code":"GP"},{"name":"ग्वेर्नसे","dial_code":"+44","code":"GG"},{"name":"घाना","dial_code":"+233","code":"GH"},{"name":"चाड","dial_code":"+235","code":"TD"},{"name":"चिली","dial_code":"+56","code":"CL"},{"name":"चीन","dial_code":"+86","code":"CN"},{"name":"चेक गणराज्य","dial_code":"+420","code":"CZ"},{"name":"जमैका","dial_code":"+1 876","code":"JM"},{"name":"जर्मनी","dial_code":"+49","code":"DE"},{"name":"जर्सी","dial_code":"+44","code":"JE"},{"name":"जापान","dial_code":"+81","code":"JP"},{"name":"ज़ाम्बिया","dial_code":"+260","code":"ZM"},{"name":"जिबूती","dial_code":"+253","code":"DJ"},{"name":"जिब्राल्टर","dial_code":"+350","code":"GI"},{"name":"ज़िम्बाब्वे","dial_code":"+263","code":"ZW"},{"name":"जॉर्जिया","dial_code":"+995","code":"GE"},{"name":"जॉर्डन","dial_code":"+962","code":"JO"},{"name":"टर्की","dial_code":"+90","code":"TR"},{"name":"टोंगा","dial_code":"+676","code":"TO"},{"name":"टोकेलाऊ","dial_code":"+690","code":"TK"},{"name":"टोगो","dial_code":"+228","code":"TG"},{"name":"ट्यूनीशिया","dial_code":"+216","code":"TN"},{"name":"डेनमार्क","dial_code":"+45","code":"DK"},{"name":"डोमिनिकन गणराज्य","dial_code":"+1 849","code":"DO"},{"name":"डोमिनिका","dial_code":"+1 767","code":"DM"},{"name":"तंज़ानिया, संयुक्त गणराज्य","dial_code":"+255","code":"TZ"},{"name":"तजाकिस्तान","dial_code":"+992","code":"TJ"},{"name":"ताइवान, चीन प्रांत","dial_code":"+886","code":"TW"},{"name":"तिमोर-लेस्ते","dial_code":"+670","code":"TL"},{"name":"तुर्क और कैकोस द्वीपसमूह","dial_code":"+1 649","code":"TC"},{"name":"तुर्कमेनिस्तान","dial_code":"+993","code":"TM"},{"name":"तुवालू","dial_code":"+688","code":"TV"},{"name":"त्रिनिदाद और टोबैगो","dial_code":"+1 868","code":"TT"},{"name":"थाईलैंड","dial_code":"+66","code":"TH"},{"name":"दक्षिण अफ़्रिका","dial_code":"+27","code":"ZA"},{"name":"दक्षिण जॉर्जिया और दक्षिण का सैंडविच द्वीपसमूह","dial_code":"+500","code":"GS"},{"name":"नाइजर","dial_code":"+227","code":"NE"},{"name":"नाइजीरिया","dial_code":"+234","code":"NG"},{"name":"नाउरू","dial_code":"+674","code":"NR"},{"name":"नामिबिया","dial_code":"+264","code":"NA"},{"name":"निकारागुआ","dial_code":"+505","code":"NI"},{"name":"नियू","dial_code":"+683","code":"NU"},{"name":"नीदरलैंड","dial_code":"+31","code":"NL"},{"name":"नीदरलैंड्स एंटाइल्स","dial_code":"+599","code":"AN"},{"name":"नेपाल","dial_code":"+977","code":"NP"},{"name":"नॉरफ़ॉक द्वीप","dial_code":"+672","code":"NF"},{"name":"नॉर्वे","dial_code":"+47","code":"NO"},{"name":"न्यू कैलेडोनिया","dial_code":"+687","code":"NC"},{"name":"न्यूज़ीलैंड","dial_code":"+64","code":"NZ"},{"name":"पनामा","dial_code":"+507","code":"PA"},{"name":"पलाउ","dial_code":"+680","code":"PW"},{"name":"पाकिस्तान","dial_code":"+92","code":"PK"},{"name":"पापुआ न्यू गिनी","dial_code":"+675","code":"PG"},{"name":"पिटकैरन","dial_code":"+872","code":"PN"},{"name":"पुर्तगाल","dial_code":"+351","code":"PT"},{"name":"पुर्तो रिको","dial_code":"+1 939","code":"PR"},{"name":"पेरू","dial_code":"+51","code":"PE"},{"name":"पैराग्वे","dial_code":"+595","code":"PY"},{"name":"पोलैंड","dial_code":"+48","code":"PL"},{"name":"फ़रो द्वीप","dial_code":"+298","code":"FO"},{"name":"फ़िजी","dial_code":"+679","code":"FJ"},{"name":"फ़िनलैंड","dial_code":"+358","code":"FI"},{"name":"फ़िलिस्तीन क्षेत्र, अधिकृत","dial_code":"+970","code":"PS"},{"name":"फ़िलीपींस","dial_code":"+63","code":"PH"},{"name":"फ़ॉकलैंड द्वीपसमूह (माल्विनास)","dial_code":"+500","code":"FK"},{"name":"फ़्रांस","dial_code":"+33","code":"FR"},{"name":"फ़्रेंच गयाना","dial_code":"+594","code":"GF"},{"name":"फ़्रेंच पोलिनेशिया","dial_code":"+689","code":"PF"},{"name":"बरमूडा","dial_code":"+1 441","code":"BM"},{"name":"बहरीन","dial_code":"+973","code":"BH"},{"name":"बहामास","dial_code":"+1 242","code":"BS"},{"name":"बांग्लादेश","dial_code":"+880","code":"BD"},{"name":"बारबाडोस","dial_code":"+1 246","code":"BB"},{"name":"बुरुंडी","dial_code":"+257","code":"BI"},{"name":"बुर्किना फ़ासो","dial_code":"+226","code":"BF"},{"name":"बुल्गारिया","dial_code":"+359","code":"BG"},{"name":"बेनिन","dial_code":"+229","code":"BJ"},{"name":"बेलारूस","dial_code":"+375","code":"BY"},{"name":"बेलीज","dial_code":"+501","code":"BZ"},{"name":"बेल्जियम","dial_code":"+32","code":"BE"},{"name":"बोत्सवाना","dial_code":"+267","code":"BW"},{"name":"बोलीविया, बहुराष्ट्रीय राज्य","dial_code":"+591","code":"BO"},{"name":"बोस्निया और हर्ज़िगोविना","dial_code":"+387","code":"BA"},{"name":"ब्राज़ील","dial_code":"+55","code":"BR"},{"name":"ब्रिटिश हिन्द माहासागर क्षेत्र","dial_code":"+246","code":"IO"},{"name":"ब्रुनेई दारुशेलम","dial_code":"+673","code":"BN"},{"name":"भारत","dial_code":"+91","code":"IN"},{"name":"भूटान","dial_code":"+975","code":"BT"},{"name":"मंगोलिया","dial_code":"+976","code":"MN"},{"name":"मकाउ","dial_code":"+853","code":"MO"},{"name":"मध्य अफ़्रीकी गणराज्य","dial_code":"+236","code":"CF"},{"name":"मलावी","dial_code":"+265","code":"MW"},{"name":"मलेशिया","dial_code":"+60","code":"MY"},{"name":"माइक्रोनेशिया, संघीय राज्य","dial_code":"+691","code":"FM"},{"name":"मार्टीनिक","dial_code":"+596","code":"MQ"},{"name":"मार्शल द्वीपसमूह","dial_code":"+692","code":"MH"},{"name":"मालदीव्स","dial_code":"+960","code":"MV"},{"name":"माली","dial_code":"+223","code":"ML"},{"name":"माल्टा","dial_code":"+356","code":"MT"},{"name":"मिस्र","dial_code":"+20","code":"EG"},{"name":"मेडागास्कर","dial_code":"+261","code":"MG"},{"name":"मेसिडोनिया, पूर्व युगोस्लाव गणराज्य","dial_code":"+389","code":"MK"},{"name":"मैक्सिको","dial_code":"+52","code":"MX"},{"name":"मैयट","dial_code":"+262","code":"YT"},{"name":"मॉरिटानिया","dial_code":"+222","code":"MR"},{"name":"मॉरीशस","dial_code":"+230","code":"MU"},{"name":"मॉल्डोवा, गणराज्य","dial_code":"+373","code":"MD"},{"name":"मोंटेनेग्रो","dial_code":"+382","code":"ME"},{"name":"मोंटेसेराट","dial_code":"+1664","code":"MS"},{"name":"मोज़ाम्बिक","dial_code":"+258","code":"MZ"},{"name":"मोनाको","dial_code":"+377","code":"MC"},{"name":"मोरक्को","dial_code":"+212","code":"MA"},{"name":"म्यांमार","dial_code":"+95","code":"MM"},{"name":"यमन","dial_code":"+967","code":"YE"},{"name":"युगांडा","dial_code":"+256","code":"UG"},{"name":"यूक्रेन","dial_code":"+380","code":"UA"},{"name":"यूनाइटेड किंगडम","dial_code":"+44","code":"GB"},{"name":"यूनान","dial_code":"+30","code":"GR"},{"name":"रवांडा","dial_code":"+250","code":"RW"},{"name":"रियूनियन","dial_code":"+262","code":"RE"},{"name":"रूस","dial_code":"+7","code":"RU"},{"name":"रोमानिया","dial_code":"+40","code":"RO"},{"name":"लक्ज़मबर्ग","dial_code":"+352","code":"LU"},{"name":"लाइबेरिया","dial_code":"+231","code":"LR"},{"name":"लाओस जनवादी प्रजातांत्रिक गणराज्य","dial_code":"+856","code":"LA"},{"name":"लातविया","dial_code":"+371","code":"LV"},{"name":"लिथुआनिया","dial_code":"+370","code":"LT"},{"name":"लिसोटो","dial_code":"+266","code":"LS"},{"name":"लिस्टेंस्टीन","dial_code":"+423","code":"LI"},{"name":"लीबियन अरब जमाहिरिया","dial_code":"+218","code":"LY"},{"name":"लेबनान","dial_code":"+961","code":"LB"},{"name":"लैंड द्वीपसमूह","dial_code":"","code":"AX"},{"name":"वनुआटू","dial_code":"+678","code":"VU"},{"name":"वर्जिन द्वीपसमूह, ब्रिटिश","dial_code":"+1 284","code":"VG"},{"name":"वर्जिन द्वीपसमूह, यू.एस.","dial_code":"+1 340","code":"VI"},{"name":"वियतनाम","dial_code":"+84","code":"VN"},{"name":"वेनेज़ुएला, बोलिवेरियन गणराज्य","dial_code":"+58","code":"VE"},{"name":"वैलिस और फ़्यूटूना","dial_code":"+681","code":"WF"},{"name":"श्री लंका","dial_code":"+94","code":"LK"},{"name":"संयुक्त अरब अमीरात","dial_code":"+971","code":"AE"},{"name":"संयुक्त राज्य अमेरिका","dial_code":"+1","code":"US"},{"name":"सऊदी अरब","dial_code":"+966","code":"SA"},{"name":"समोआ","dial_code":"+685","code":"WS"},{"name":"सर्बिया","dial_code":"+381","code":"RS"},{"name":"साओ तोमे और प्रिन्सिपी","dial_code":"+239","code":"ST"},{"name":"सायप्रस","dial_code":"+537","code":"CY"},{"name":"सिंगापुर","dial_code":"+65","code":"SG"},{"name":"सिएरा लियोन","dial_code":"+232","code":"SL"},{"name":"सीरियाई अरब गणराज्य","dial_code":"+963","code":"SY"},{"name":"सूडान","dial_code":"+249","code":"SD"},{"name":"सूरीनाम","dial_code":"+597","code":"SR"},{"name":"सेंट किट्ट्स और नेविस","dial_code":"+1 869","code":"KN"},{"name":"सेंट पियर और मिकलान","dial_code":"+508","code":"PM"},{"name":"सेंट बार्थेलेम्यो","dial_code":"+590","code":"BL"},{"name":"सेंट मार्टिन","dial_code":"+590","code":"MF"},{"name":"सेंट लूसिया","dial_code":"+1 758","code":"LC"},{"name":"सेंट विंसेंट और ग्रेनेडाइन्स","dial_code":"+1 784","code":"VC"},{"name":"सेंट हेलेना, असेंशन और ट्रिस्टन दा कुन्हा","dial_code":"+290","code":"SH"},{"name":"सेनेगल","dial_code":"+221","code":"SN"},{"name":"सेशल्स","dial_code":"+248","code":"SC"},{"name":"सैन मैरिनो","dial_code":"+378","code":"SM"},{"name":"सोमालिया","dial_code":"+252","code":"SO"},{"name":"सोलोमन द्वीपसमूह","dial_code":"+677","code":"SB"},{"name":"स्पेन","dial_code":"+34","code":"ES"},{"name":"स्लोवाकिया","dial_code":"+421","code":"SK"},{"name":"स्लोवेनिया","dial_code":"+386","code":"SI"},{"name":"स्वाज़ीलैंड","dial_code":"+268","code":"SZ"},{"name":"स्वालबार्ड और जान मायेन","dial_code":"+47","code":"SJ"},{"name":"स्विज़रलैंड","dial_code":"+41","code":"CH"},{"name":"स्वीडन","dial_code":"+46","code":"SE"},{"name":"हंगरी","dial_code":"+36","code":"HU"},{"name":"हैती","dial_code":"+509","code":"HT"},{"name":"हॉन्ग कॉन्ग","dial_code":"+852","code":"HK"},{"name":"होंडुरस","dial_code":"+504","code":"HN"},{"name":"होली सी (वेटिकन सिटी स्टेट)","dial_code":"+379","code":"VA"}]}