{
  "font": "Jost-Light",
  "countryCodes": [
    {
      "name": "أفغانستان",
      "dial_code": "+93",
      "code": "AF"
    },
    {
      "name": "ألبانيا",
      "dial_code": "+355",
      "code": "AL"
    },
    {
      "name": "الجزائر",
      "dial_code": "+213",
      "code": "DZ"
    },
    {
      "name": "ساموا الأمريكية",
      "dial_code": "+1 684",
      "code": "AS"
    },
    {
      "name": "أندورا",
      "dial_code": "+376",
      "code": "AD"
    },
    {
      "name": "أنغولا",
      "dial_code": "+244",
      "code": "AO"
    },
    {
      "name": "أنغيلا",
      "dial_code": "+1 264",
      "code": "AI"
    },
    {
      "name": "القارة القطبية الجنوبية",
      "dial_code": "",
      "code": "AQ"
    },
    {
      "name": "أنتيغوا وبربودا",
      "dial_code": "+1268",
      "code": "AG"
    },
    {
      "name": "جزر آلاند",
      "dial_code": "+54",
      "code": "AR"
    },
    {
      "name": "الأرجنتين",
      "dial_code": "+374",
      "code": "AM"
    },
    {
      "name": "أرمينيا",
      "dial_code": "+297",
      "code": "AW"
    },
    {
      "name": "أروبا",
      "dial_code": "+61",
      "code": "AU"
    },
    {
      "name": "أستراليا",
      "dial_code": "+43",
      "code": "AT"
    },
    {
      "name": "النمسا",
      "dial_code": "+994",
      "code": "AZ"
    },
    {
      "name": "أذربيجان",
      "dial_code": "+1 242",
      "code": "BS"
    },
    {
      "name": "جزر البهاما",
      "dial_code": "+973",
      "code": "BH"
    },
    {
      "name": "البحرين",
      "dial_code": "+880",
      "code": "BD"
    },
    {
      "name": "بنغلاديش",
      "dial_code": "+1 246",
      "code": "BB"
    },
    {
      "name": "باربادوس",
      "dial_code": "+375",
      "code": "BY"
    },
    {
      "name": "روسيا البيضاء",
      "dial_code": "+32",
      "code": "BE"
    },
    {
      "name": "بلجيكا",
      "dial_code": "+501",
      "code": "BZ"
    },
    {
      "name": "بيليز",
      "dial_code": "+229",
      "code": "BJ"
    },
    {
      "name": "بنين",
      "dial_code": "+1 441",
      "code": "BM"
    },
    {
      "name": "برمودا",
      "dial_code": "+975",
      "code": "BT"
    },
    {
      "name": "بوتان",
      "dial_code": "+591",
      "code": "BO"
    },
    {
      "name": "بوليفيا ، دولة متعددة القوميات",
      "dial_code": "+387",
      "code": "BA"
    },
    {
      "name": "البوسنة والهرسك",
      "dial_code": "+267",
      "code": "BW"
    },
    {
      "name": "بوتسوانا",
      "dial_code": "+55",
      "code": "BR"
    },
    {
      "name": "البرازيل",
      "dial_code": "+246",
      "code": "IO"
    },
    {
      "name": "إقليم المحيط الهندي البريطاني",
      "dial_code": "+673",
      "code": "BN"
    },
    {
      "name": "بروناي دار السلام",
      "dial_code": "+359",
      "code": "BG"
    },
    {
      "name": "بلغاريا",
      "dial_code": "+226",
      "code": "BF"
    },
    {
      "name": "بوركينا فاسو",
      "dial_code": "+257",
      "code": "BI"
    },
    {
      "name": "Burundi",
      "dial_code": "+855",
      "code": "KH"
    },
    {
      "name": "كمبوديا",
      "dial_code": "+237",
      "code": "CM"
    },
    {
      "name": "الكاميرون",
      "dial_code": "+1",
      "code": "CA"
    },
    {
      "name": "كندا",
      "dial_code": "+238",
      "code": "CV"
    },
    {
      "name": "الرأس الأخضر",
      "dial_code": "+ 345",
      "code": "KY"
    },
    {
      "name": "جزر كايمان",
      "dial_code": "+236",
      "code": "CF"
    },
    {
      "name": "جمهورية افريقيا الوسطى",
      "dial_code": "+235",
      "code": "TD"
    },
    {
      "name": "تشاد",
      "dial_code": "+56",
      "code": "CL"
    },
    {
      "name": "تشيلي",
      "dial_code": "+86",
      "code": "CN"
    },
    {
      "name": "الصين",
      "dial_code": "+61",
      "code": "CX"
    },
    {
      "name": "جزيرة الكريسماس",
      "dial_code": "+61",
      "code": "CC"
    },
    {
      "name": "جزر كوكوس (كيلينغ)",
      "dial_code": "+57",
      "code": "CO"
    },
    {
      "name": "كولومبيا",
      "dial_code": "+269",
      "code": "KM"
    },
    {
      "name": "جزر القمر",
      "dial_code": "+242",
      "code": "CG"
    },
    {
      "name": "الكونغو",
      "dial_code": "+243",
      "code": "CD"
    },
    {
      "name": "جمهورية الكونغو الديمقراطية",
      "dial_code": "+682",
      "code": "CK"
    },
    {
      "name": "جزر كوك",
      "dial_code": "+506",
      "code": "CR"
    },
    {
      "name": "كوستا ريكا",
      "dial_code": "+225",
      "code": "CI"
    },
    {
      "name": "ساحل العاج",
      "dial_code": "+385",
      "code": "HR"
    },
    {
      "name": "كرواتيا",
      "dial_code": "+53",
      "code": "CU"
    },
    {
      "name": "كوبا",
      "dial_code": "+537",
      "code": "CY"
    },
    {
      "name": "قبرص",
      "dial_code": "+420",
      "code": "CZ"
    },
    {
      "name": "جمهورية التشيك",
      "dial_code": "+45",
      "code": "DK"
    },
    {
      "name": "الدنمارك",
      "dial_code": "+253",
      "code": "DJ"
    },
    {
      "name": "جيبوتي",
      "dial_code": "+1 767",
      "code": "DM"
    },
    {
      "name": "دومينيكا",
      "dial_code": "+1 849",
      "code": "DO"
    },
    {
      "name": "جمهورية الدومينيكان",
      "dial_code": "+593",
      "code": "EC"
    },
    {
      "name": "الاكوادور",
      "dial_code": "+20",
      "code": "EG"
    },
    {
      "name": "مصر",
      "dial_code": "+503",
      "code": "SV"
    },
    {
      "name": "السلفادور",
      "dial_code": "+240",
      "code": "GQ"
    },
    {
      "name": "غينيا الإستوائية",
      "dial_code": "+291",
      "code": "ER"
    },
    {
      "name": "إرتريا",
      "dial_code": "+372",
      "code": "EE"
    },
    {
      "name": "إستونيا",
      "dial_code": "+251",
      "code": "ET"
    },
    {
      "name": "أثيوبيا",
      "dial_code": "+500",
      "code": "FK"
    },
    {
      "name": "جزر فوكلاند (مالفيناس)",
      "dial_code": "+298",
      "code": "FO"
    },
    {
      "name": "جزر فارو",
      "dial_code": "+679",
      "code": "FJ"
    },
    {
      "name": "فيجي",
      "dial_code": "+358",
      "code": "FI"
    },
    {
      "name": "فنلندا",
      "dial_code": "+33",
      "code": "FR"
    },
    {
      "name": "فرنسا",
      "dial_code": "+594",
      "code": "GF"
    },
    {
      "name": "غينيا الفرنسية",
      "dial_code": "+689",
      "code": "PF"
    },
    {
      "name": "بولينيزيا الفرنسية",
      "dial_code": "+241",
      "code": "GA"
    },
    {
      "name": "الغابون",
      "dial_code": "+220",
      "code": "GM"
    },
    {
      "name": "غامبيا",
      "dial_code": "+995",
      "code": "GE"
    },
    {
      "name": "جورجيا",
      "dial_code": "+49",
      "code": "DE"
    },
    {
      "name": "ألمانيا",
      "dial_code": "+233",
      "code": "GH"
    },
    {
      "name": "غانا",
      "dial_code": "+350",
      "code": "GI"
    },
    {
      "name": "جبل طارق",
      "dial_code": "+30",
      "code": "GR"
    },
    {
      "name": "اليونان",
      "dial_code": "+299",
      "code": "GL"
    },
    {
      "name": "الأرض الخضراء",
      "dial_code": "+1 473",
      "code": "GD"
    },
    {
      "name": "غرينادا",
      "dial_code": "+590",
      "code": "GP"
    },
    {
      "name": "غوادلوب",
      "dial_code": "+1 671",
      "code": "GU"
    },
    {
      "name": "غوام",
      "dial_code": "+502",
      "code": "GT"
    },
    {
      "name": "جواتيمالا",
      "dial_code": "+44",
      "code": "GG"
    },
    {
      "name": "غيرنسي",
      "dial_code": "+224",
      "code": "GN"
    },
    {
      "name": "غينيا",
      "dial_code": "+245",
      "code": "GW"
    },
    {
      "name": "غينيا بيساو",
      "dial_code": "+595",
      "code": "GY"
    },
    {
      "name": "غيانا",
      "dial_code": "+509",
      "code": "HT"
    },
    {
      "name": "هايتي",
      "dial_code": "+379",
      "code": "VA"
    },
    {
      "name": "الكرسي الرسولي (دولة الفاتيكان)",
      "dial_code": "+504",
      "code": "HN"
    },
    {
      "name": "هندوراس",
      "dial_code": "+852",
      "code": "HK"
    },
    {
      "name": "هونج كونج",
      "dial_code": "+36",
      "code": "HU"
    },
    {
      "name": "هنغاريا",
      "dial_code": "+354",
      "code": "IS"
    },
    {
      "name": "أيسلندا",
      "dial_code": "+91",
      "code": "IN"
    },
    {
      "name": "الهند",
      "dial_code": "+62",
      "code": "ID"
    },
    {
      "name": "إندونيسيا",
      "dial_code": "+98",
      "code": "IR"
    },
    {
      "name": "جمهورية إيران الإسلامية",
      "dial_code": "+964",
      "code": "IQ"
    },
    {
      "name": "العراق",
      "dial_code": "+353",
      "code": "IE"
    },
    {
      "name": "أيرلندا",
      "dial_code": "+44",
      "code": "IM"
    },
    {
      "name": "جزيرة مان",
      "dial_code": "+972",
      "code": "IL"
    },
    {
      "name": "إسرائيل",
      "dial_code": "+972",
      "code": "IL"
    },
    {
      "name": "إسرائيل",
      "dial_code": "+39",
      "code": "IT"
    },
    {
      "name": "إيطاليا",
      "dial_code": "+1 876",
      "code": "JM"
    },
    {
      "name": "جامايكا",
      "dial_code": "+81",
      "code": "JP"
    },
    {
      "name": "اليابان",
      "dial_code": "+44",
      "code": "JE"
    },
    {
      "name": "جيرسي",
      "dial_code": "+962",
      "code": "JO"
    },
    {
      "name": "الأردن",
      "dial_code": "+7 7",
      "code": "KZ"
    },
    {
      "name": "كازاخستان",
      "dial_code": "+254",
      "code": "KE"
    },
    {
      "name": "كينيا",
      "dial_code": "+686",
      "code": "KI"
    },
    {
      "name": "كيريباتي",
      "dial_code": "+850",
      "code": "KP"
    },
    {
      "name": "كوريا، الجمهورية الشعبية الديمقراطية",
      "dial_code": "+82",
      "code": "KR"
    },
    {
      "name": "جمهورية كوريا",
      "dial_code": "+965",
      "code": "KW"
    },
    {
      "name": "الكويت",
      "dial_code": "+996",
      "code": "KG"
    },
    {
      "name": "قرغيزستان",
      "dial_code": "",
      "code": "AX"
    },
    {
      "name": "جمهورية لاوس الديمقراطية الشعبية",
      "dial_code": "+856",
      "code": "LA"
    },
    {
      "name": "لاتفيا",
      "dial_code": "+371",
      "code": "LV"
    },
    {
      "name": "لبنان",
      "dial_code": "+961",
      "code": "LB"
    },
    {
      "name": "ليسوتو",
      "dial_code": "+266",
      "code": "LS"
    },
    {
      "name": "ليبيريا",
      "dial_code": "+231",
      "code": "LR"
    },
    {
      "name": "ليبيا",
      "dial_code": "+218",
      "code": "LY"
    },
    {
      "name": "ليختنشتاين",
      "dial_code": "+423",
      "code": "LI"
    },
    {
      "name": "ليتوانيا",
      "dial_code": "+370",
      "code": "LT"
    },
    {
      "name": "لوكسمبورغ",
      "dial_code": "+352",
      "code": "LU"
    },
    {
      "name": "ماكاو",
      "dial_code": "+853",
      "code": "MO"
    },
    {
      "name": "مدغشقر",
      "dial_code": "+389",
      "code": "MK"
    },
    {
      "name": "ملاوي",
      "dial_code": "+261",
      "code": "MG"
    },
    {
      "name": "ماليزيا",
      "dial_code": "+265",
      "code": "MW"
    },
    {
      "name": "جزر المالديف",
      "dial_code": "+60",
      "code": "MY"
    },
    {
      "name": "مالي",
      "dial_code": "+960",
      "code": "MV"
    },
    {
      "name": "مالطا",
      "dial_code": "+223",
      "code": "ML"
    },
    {
      "name": "جزر مارشال",
      "dial_code": "+356",
      "code": "MT"
    },
    {
      "name": "مارتينيك",
      "dial_code": "+692",
      "code": "MH"
    },
    {
      "name": "موريتانيا",
      "dial_code": "+596",
      "code": "MQ"
    },
    {
      "name": "موريشيوس",
      "dial_code": "+222",
      "code": "MR"
    },
    {
      "name": "مايوت",
      "dial_code": "+230",
      "code": "MU"
    },
    {
      "name": "المكسيك",
      "dial_code": "+262",
      "code": "YT"
    },
    {
      "name": "ولايات ميكرونيسيا المتحدة",
      "dial_code": "+52",
      "code": "MX"
    },
    {
      "name": "جمهورية مولدوفا",
      "dial_code": "+691",
      "code": "FM"
    },
    {
      "name": "موناكو",
      "dial_code": "+373",
      "code": "MD"
    },
    {
      "name": "منغوليا",
      "dial_code": "+377",
      "code": "MC"
    },
    {
      "name": "الجبل الأسود",
      "dial_code": "+976",
      "code": "MN"
    },
    {
      "name": "مونتسيرات",
      "dial_code": "+382",
      "code": "ME"
    },
    {
      "name": "المغرب",
      "dial_code": "+1664",
      "code": "MS"
    },
    {
      "name": "موزمبيق",
      "dial_code": "+212",
      "code": "MA"
    },
    {
      "name": "ميانمار",
      "dial_code": "+258",
      "code": "MZ"
    },
    {
      "name": "ناميبيا",
      "dial_code": "+95",
      "code": "MM"
    },
    {
      "name": "ناورو",
      "dial_code": "+264",
      "code": "NA"
    },
    {
      "name": "نيبال",
      "dial_code": "+674",
      "code": "NR"
    },
    {
      "name": "هولندا",
      "dial_code": "+977",
      "code": "NP"
    },
    {
      "name": "جزر الأنتيل الهولندية",
      "dial_code": "+31",
      "code": "NL"
    },
    {
      "name": "كاليدونيا الجديدة",
      "dial_code": "+599",
      "code": "AN"
    },
    {
      "name": "نيوزيلاندا",
      "dial_code": "+687",
      "code": "NC"
    },
    {
      "name": "نيكاراغوا",
      "dial_code": "+64",
      "code": "NZ"
    },
    {
      "name": "النيجر",
      "dial_code": "+505",
      "code": "NI"
    },
    {
      "name": "نيجيريا",
      "dial_code": "+227",
      "code": "NE"
    },
    {
      "name": "نيوي",
      "dial_code": "+234",
      "code": "NG"
    },
    {
      "name": "جزيرة نورفولك",
      "dial_code": "+683",
      "code": "NU"
    },
    {
      "name": "مقدونيا الشمالية",
      "dial_code": "+672",
      "code": "NF"
    },
    {
      "name": "جزر مريانا الشمالية",
      "dial_code": "+1 670",
      "code": "MP"
    },
    {
      "name": "النرويج",
      "dial_code": "+47",
      "code": "NO"
    },
    {
      "name": "Oman",
      "dial_code": "+968",
      "code": "OM"
    },
    {
      "name": "باكستان",
      "dial_code": "+92",
      "code": "PK"
    },
    {
      "name": "بالاو",
      "dial_code": "+680",
      "code": "PW"
    },
    {
      "name": "دولة فلسطين  ",
      "dial_code": "+970",
      "code": "PS"
    },
    {
      "name": "بنما",
      "dial_code": "+507",
      "code": "PA"
    },
    {
      "name": "بابوا غينيا الجديدة",
      "dial_code": "+675",
      "code": "PG"
    },
    {
      "name": "باراغواي",
      "dial_code": "+595",
      "code": "PY"
    },
    {
      "name": "بيرو",
      "dial_code": "+51",
      "code": "PE"
    },
    {
      "name": "الفلبين",
      "dial_code": "+63",
      "code": "PH"
    },
    {
      "name": "بيتكيرن",
      "dial_code": "+872",
      "code": "PN"
    },
    {
      "name": "بولندا",
      "dial_code": "+48",
      "code": "PL"
    },
    {
      "name": "البرتغال",
      "dial_code": "+351",
      "code": "PT"
    },
    {
      "name": "بورتوريكو",
      "dial_code": "+1 939",
      "code": "PR"
    },
    {
      "name": "قطر",
      "dial_code": "+974",
      "code": "QA"
    },
    {
      "name": "ريونيون",
      "dial_code": "+262",
      "code": "RE"
    },
    {
      "name": "رومانيا",
      "dial_code": "+40",
      "code": "RO"
    },
    {
      "name": "روسيا",
      "dial_code": "+7",
      "code": "RU"
    },
    {
      "name": "رواندا",
      "dial_code": "+250",
      "code": "RW"
    },
    {
      "name": "سانت بارتيليمي",
      "dial_code": "+590",
      "code": "BL"
    },
    {
      "name": "سانت هيلينا وأسينشين وتريستان دا كونا",
      "dial_code": "+290",
      "code": "SH"
    },
    {
      "name": "سانت كيتس ونيفيس",
      "dial_code": "+1 869",
      "code": "KN"
    },
    {
      "name": "سانت لوسيا",
      "dial_code": "+1 758",
      "code": "LC"
    },
    {
      "name": "سانت مارتن",
      "dial_code": "+590",
      "code": "MF"
    },
    {
      "name": "سان بيار وميكلون",
      "dial_code": "+508",
      "code": "PM"
    },
    {
      "name": "سانت فنسنت والجرينادينز",
      "dial_code": "+1 784",
      "code": "VC"
    },
    {
      "name": "ساموا",
      "dial_code": "+685",
      "code": "WS"
    },
    {
      "name": "سان مارينو",
      "dial_code": "+378",
      "code": "SM"
    },
    {
      "name": "ساو تومي وبرينسيبي",
      "dial_code": "+239",
      "code": "ST"
    },
    {
      "name": "المملكة العربية السعودية",
      "dial_code": "+966",
      "code": "SA"
    },
    {
      "name": "السنغال",
      "dial_code": "+221",
      "code": "SN"
    },
    {
      "name": "صربيا",
      "dial_code": "+381",
      "code": "RS"
    },
    {
      "name": "سيشيل",
      "dial_code": "+248",
      "code": "SC"
    },
    {
      "name": "سيراليون",
      "dial_code": "+232",
      "code": "SL"
    },
    {
      "name": "سنغافورة",
      "dial_code": "+65",
      "code": "SG"
    },
    {
      "name": "سلوفاكيا",
      "dial_code": "+421",
      "code": "SK"
    },
    {
      "name": "سلوفينيا",
      "dial_code": "+386",
      "code": "SI"
    },
    {
      "name": "جزر سليمان",
      "dial_code": "+677",
      "code": "SB"
    },
    {
      "name": "الصومال",
      "dial_code": "+252",
      "code": "SO"
    },
    {
      "name": "جنوب أفريقيا",
      "dial_code": "+27",
      "code": "ZA"
    },
    {
      "name": "جورجيا الجنوبية وجزر ساندويتش الجنوبية",
      "dial_code": "+500",
      "code": "GS"
    },
    {
      "name": "إسبانيا",
      "dial_code": "+34",
      "code": "ES"
    },
    {
      "name": "سيريلانكا",
      "dial_code": "+94",
      "code": "LK"
    },
    {
      "name": "السودان",
      "dial_code": "+249",
      "code": "SD"
    },
    {
      "name": "سورينام",
      "dial_code": "+597",
      "code": "SR"
    },
    {
      "name": "سفالبارد ويان ماين",
      "dial_code": "+47",
      "code": "SJ"
    },
    {
      "name": "إسواتيني",
      "dial_code": "+268",
      "code": "SZ"
    },
    {
      "name": "السويد",
      "dial_code": "+46",
      "code": "SE"
    },
    {
      "name": "سويسرا",
      "dial_code": "+41",
      "code": "CH"
    },
    {
      "name": "الجمهورية العربية السورية",
      "dial_code": "+963",
      "code": "SY"
    },
    {
      "name": "تايوان",
      "dial_code": "+886",
      "code": "TW"
    },
    {
      "name": "طاجيكستان",
      "dial_code": "+992",
      "code": "TJ"
    },
    {
      "name": "جمهورية تنزانيا المتحدة",
      "dial_code": "+255",
      "code": "TZ"
    },
    {
      "name": "تايلاند",
      "dial_code": "+66",
      "code": "TH"
    },
    {
      "name": "تيمور الشرقية",
      "dial_code": "+670",
      "code": "TL"
    },
    {
      "name": "توجو",
      "dial_code": "+228",
      "code": "TG"
    },
    {
      "name": "توكيلاو",
      "dial_code": "+690",
      "code": "TK"
    },
    {
      "name": "تونغا",
      "dial_code": "+676",
      "code": "TO"
    },
    {
      "name": "ترينيداد وتوباغو",
      "dial_code": "+1 868",
      "code": "TT"
    },
    {
      "name": "تونس",
      "dial_code": "+216",
      "code": "TN"
    },
    {
      "name": "تركيا",
      "dial_code": "+90",
      "code": "TR"
    },
    {
      "name": "تركمانستان",
      "dial_code": "+993",
      "code": "TM"
    },
    {
      "name": "جزر توركس وكايكوس",
      "dial_code": "+1 649",
      "code": "TC"
    },
    {
      "name": "توفالو",
      "dial_code": "+688",
      "code": "TV"
    },
    {
      "name": "أوغندا",
      "dial_code": "+256",
      "code": "UG"
    },
    {
      "name": "أوكرانيا",
      "dial_code": "+380",
      "code": "UA"
    },
    {
      "name": "الإمارات العربية المتحدة",
      "dial_code": "+971",
      "code": "AE"
    },
    {
      "name": "المملكة المتحدة لبريطانيا العظمى وأيرلندا الشمالية",
      "dial_code": "+44",
      "code": "GB"
    },
    {
      "name": "الولايات المتحدة الأمريكية",
      "dial_code": "+1",
      "code": "US"
    },
    {
      "name": "الأوروغواي",
      "dial_code": "+598",
      "code": "UY"
    },
    {
      "name": "أوزبكستان",
      "dial_code": "+998",
      "code": "UZ"
    },
    {
      "name": "فانواتو",
      "dial_code": "+678",
      "code": "VU"
    },
    {
      "name": "جمهورية فنزويلا البوليفارية",
      "dial_code": "+58",
      "code": "VE"
    },
    {
      "name": "فيتنام",
      "dial_code": "+84",
      "code": "VN"
    },
    {
      "name": "جزر العذراء البريطانية",
      "dial_code": "+1 284",
      "code": "VG"
    },
    {
      "name": "جزر العذراء الأمريكية",
      "dial_code": "+1 340",
      "code": "VI"
    },
    {
      "name": "واليس وفوتونا",
      "dial_code": "+681",
      "code": "WF"
    },
    {
      "name": "اليمن",
      "dial_code": "+967",
      "code": "YE"
    },
    {
      "name": "زامبيا",
      "dial_code": "+260",
      "code": "ZM"
    },
    {
      "name": "زيمبابوي",
      "dial_code": "+263",
      "code": "ZW"
    }
  ]
}