{"countryCodes":[{"name":"Afghanistan","dial_code":"+93","code":"AF"},{"name":"Ägypten","dial_code":"+503","code":"SV"},{"name":"Aland-Inseln","dial_code":"+54","code":"AR"},{"name":"Albanien","dial_code":"+355","code":"AL"},{"name":"Algerien","dial_code":"+213","code":"DZ"},{"name":"Amerikanische Jungferninseln","dial_code":"+1 340","code":"VI"},{"name":"Amerikanisch-Samoa","dial_code":"+1 684","code":"AS"},{"name":"Andorra","dial_code":"+376","code":"AD"},{"name":"Angola","dial_code":"+244","code":"AO"},{"name":"Anguilla","dial_code":"+1 264","code":"AI"},{"name":"Antarktis","dial_code":"","code":"AQ"},{"name":"Antigua und Barbuda","dial_code":"+1268","code":"AG"},{"name":"Äquatorialguinea","dial_code":"+291","code":"ER"},{"name":"Argentinien","dial_code":"+374","code":"AM"},{"name":"Armenien","dial_code":"+297","code":"AW"},{"name":"Aruba","dial_code":"+61","code":"AU"},{"name":"Aserbaidschan","dial_code":"+1 242","code":"BS"},{"name":"Äthiopien","dial_code":"+500","code":"FK"},{"name":"Australien","dial_code":"+43","code":"AT"},{"name":"Bahamas","dial_code":"+973","code":"BH"},{"name":"Bahrain","dial_code":"+880","code":"BD"},{"name":"Bangladesch","dial_code":"+1 246","code":"BB"},{"name":"Barbados","dial_code":"+375","code":"BY"},{"name":"Belarus","dial_code":"+32","code":"BE"},{"name":"Belgien","dial_code":"+501","code":"BZ"},{"name":"Belize","dial_code":"+229","code":"BJ"},{"name":"Benin","dial_code":"+1 441","code":"BM"},{"name":"Bermuda","dial_code":"+975","code":"BT"},{"name":"Bhutan","dial_code":"+591","code":"BO"},{"name":"Bolivien, Plurinationaler Staat","dial_code":"+387","code":"BA"},{"name":"Bosnien und Herzegowina","dial_code":"+267","code":"BW"},{"name":"Botswana","dial_code":"+55","code":"BR"},{"name":"Brasilien","dial_code":"+246","code":"IO"},{"name":"Britische Jungferninseln","dial_code":"+1 284","code":"VG"},{"name":"Britisches Territorium im Indischen Ozean","dial_code":"+673","code":"BN"},{"name":"Brunei Darussalam","dial_code":"+359","code":"BG"},{"name":"Bulgarien","dial_code":"+226","code":"BF"},{"name":"Burkina Faso","dial_code":"+257","code":"BI"},{"name":"Burma","dial_code":"+258","code":"MZ"},{"name":"Burundi","dial_code":"+855","code":"KH"},{"name":"Chile","dial_code":"+86","code":"CN"},{"name":"China","dial_code":"+61","code":"CX"},{"name":"Cookinseln","dial_code":"+506","code":"CR"},{"name":"Costa Rica","dial_code":"+225","code":"CI"},{"name":"Dänemark","dial_code":"+253","code":"DJ"},{"name":"Demokratische Volksrepublik Laos","dial_code":"+856","code":"LA"},{"name":"Deutschland","dial_code":"+233","code":"GH"},{"name":"Dominica","dial_code":"+1 849","code":"DO"},{"name":"Dominikanische Republik","dial_code":"+593","code":"EC"},{"name":"Dschibuti","dial_code":"+1 767","code":"DM"},{"name":"Ecuador","dial_code":"+20","code":"EG"},{"name":"El Salvador","dial_code":"+240","code":"GQ"},{"name":"Elfenbeinküste","dial_code":"+385","code":"HR"},{"name":"Eritrea","dial_code":"+372","code":"EE"},{"name":"Estland","dial_code":"+251","code":"ET"},{"name":"Falklandinseln (Malwinen)","dial_code":"+298","code":"FO"},{"name":"Färöer","dial_code":"+679","code":"FJ"},{"name":"Fidschi","dial_code":"+358","code":"FI"},{"name":"Finnland","dial_code":"+33","code":"FR"},{"name":"Frankreich","dial_code":"+594","code":"GF"},{"name":"Französisch Polynesien","dial_code":"+241","code":"GA"},{"name":"Französisch-Guayana","dial_code":"+689","code":"PF"},{"name":"Gabun","dial_code":"+220","code":"GM"},{"name":"Gambia","dial_code":"+995","code":"GE"},{"name":"Georgien","dial_code":"+49","code":"DE"},{"name":"Ghana","dial_code":"+350","code":"GI"},{"name":"Gibraltar","dial_code":"+30","code":"GR"},{"name":"Grenada","dial_code":"+590","code":"GP"},{"name":"Griechenland","dial_code":"+299","code":"GL"},{"name":"Grönland","dial_code":"+1 473","code":"GD"},{"name":"Guadeloupe","dial_code":"+1 671","code":"GU"},{"name":"Guam","dial_code":"+502","code":"GT"},{"name":"Guatemala","dial_code":"+44","code":"GG"},{"name":"Guernsey","dial_code":"+224","code":"GN"},{"name":"Guinea","dial_code":"+245","code":"GW"},{"name":"Guinea-Bissau","dial_code":"+595","code":"GY"},{"name":"Guyana","dial_code":"+509","code":"HT"},{"name":"Haiti","dial_code":"+379","code":"VA"},{"name":"Heiliger Stuhl (Staat Vatikanstadt)","dial_code":"+504","code":"HN"},{"name":"Honduras","dial_code":"+852","code":"HK"},{"name":"Hongkong","dial_code":"+36","code":"HU"},{"name":"Indien","dial_code":"+62","code":"ID"},{"name":"Indonesien","dial_code":"+98","code":"IR"},{"name":"Irak","dial_code":"+353","code":"IE"},{"name":"Iran, Islamische Republik","dial_code":"+964","code":"IQ"},{"name":"Irland","dial_code":"+44","code":"IM"},{"name":"Island","dial_code":"+91","code":"IN"},{"name":"Isle of Man","dial_code":"+972","code":"IL"},{"name":"Israel","dial_code":"+972","code":"IL"},{"name":"Israel","dial_code":"+39","code":"IT"},{"name":"Italien","dial_code":"+1 876","code":"JM"},{"name":"Jamaika","dial_code":"+81","code":"JP"},{"name":"Japan","dial_code":"+44","code":"JE"},{"name":"Jemen","dial_code":"+967","code":"YE"},{"name":"Jersey","dial_code":"+962","code":"JO"},{"name":"Jordanien","dial_code":"+7 7","code":"KZ"},{"name":"Kaimaninseln","dial_code":"+236","code":"CF"},{"name":"Kambodscha","dial_code":"+237","code":"CM"},{"name":"Kamerun","dial_code":"+1","code":"CA"},{"name":"Kanada","dial_code":"+238","code":"CV"},{"name":"Kap Verde","dial_code":"+ 345","code":"KY"},{"name":"Kasachstan","dial_code":"+254","code":"KE"},{"name":"Katar","dial_code":"+974","code":"QA"},{"name":"Kenia","dial_code":"+686","code":"KI"},{"name":"Kirgisistan","dial_code":"","code":"AX"},{"name":"Kiribati","dial_code":"+850","code":"KP"},{"name":"Kokosinseln (Keelinginseln).","dial_code":"+57","code":"CO"},{"name":"Kolumbien","dial_code":"+269","code":"KM"},{"name":"Komoren","dial_code":"+242","code":"CG"},{"name":"Kongo","dial_code":"+243","code":"CD"},{"name":"Kongo, die Demokratische Republik der","dial_code":"+682","code":"CK"},{"name":"Korea, Demokratische Volksrepublik","dial_code":"+82","code":"KR"},{"name":"Korea, Republik von","dial_code":"+965","code":"KW"},{"name":"Kroatien","dial_code":"+53","code":"CU"},{"name":"Kuba","dial_code":"+537","code":"CY"},{"name":"Kuwait","dial_code":"+996","code":"KG"},{"name":"Lesotho","dial_code":"+266","code":"LS"},{"name":"Lettland","dial_code":"+371","code":"LV"},{"name":"Libanon","dial_code":"+961","code":"LB"},{"name":"Liberia","dial_code":"+231","code":"LR"},{"name":"Libyen","dial_code":"+218","code":"LY"},{"name":"Liechtenstein","dial_code":"+423","code":"LI"},{"name":"Litauen","dial_code":"+370","code":"LT"},{"name":"Luxemburg","dial_code":"+352","code":"LU"},{"name":"Macau","dial_code":"+853","code":"MO"},{"name":"Madagaskar","dial_code":"+389","code":"MK"},{"name":"Malawi","dial_code":"+265","code":"MW"},{"name":"Malaysia","dial_code":"+60","code":"MY"},{"name":"Malediven","dial_code":"+261","code":"MG"},{"name":"Mali","dial_code":"+223","code":"ML"},{"name":"Malta","dial_code":"+356","code":"MT"},{"name":"Marokko","dial_code":"+976","code":"MN"},{"name":"Marshallinseln","dial_code":"+960","code":"MV"},{"name":"Martinique","dial_code":"+596","code":"MQ"},{"name":"Mauretanien","dial_code":"+692","code":"MH"},{"name":"Mauritius","dial_code":"+230","code":"MU"},{"name":"Mayotte","dial_code":"+262","code":"YT"},{"name":"Mexiko","dial_code":"+222","code":"MR"},{"name":"Mikronesien, Föderierte Staaten von","dial_code":"+52","code":"MX"},{"name":"Moldawien, Republik","dial_code":"+691","code":"FM"},{"name":"Monaco","dial_code":"+377","code":"MC"},{"name":"Mongolei","dial_code":"+373","code":"MD"},{"name":"Montenegro","dial_code":"+382","code":"ME"},{"name":"Montserrat","dial_code":"+1664","code":"MS"},{"name":"Mosambik","dial_code":"+212","code":"MA"},{"name":"Namibia","dial_code":"+264","code":"NA"},{"name":"Nauru","dial_code":"+674","code":"NR"},{"name":"Nepal","dial_code":"+977","code":"NP"},{"name":"Neukaledonien","dial_code":"+599","code":"AN"},{"name":"Neuseeland","dial_code":"+687","code":"NC"},{"name":"Nicaragua","dial_code":"+505","code":"NI"},{"name":"Niederlande","dial_code":"+95","code":"MM"},{"name":"Niederländische Antillen","dial_code":"+31","code":"NL"},{"name":"Niger","dial_code":"+227","code":"NE"},{"name":"Nigeria","dial_code":"+234","code":"NG"},{"name":"Niue","dial_code":"+683","code":"NU"},{"name":"Nördliche Marianneninseln","dial_code":"+1 670","code":"MP"},{"name":"Nordmazedonien","dial_code":"+672","code":"NF"},{"name":"Norfolkinsel","dial_code":"+64","code":"NZ"},{"name":"Norwegen","dial_code":"+47","code":"NO"},{"name":"Oman","dial_code":"+968","code":"OM"},{"name":"Österreich","dial_code":"+994","code":"AZ"},{"name":"Osttimor","dial_code":"+670","code":"TL"},{"name":"Pakistan","dial_code":"+92","code":"PK"},{"name":"Palästina ","dial_code":"+970","code":"PS"},{"name":"Palau","dial_code":"+680","code":"PW"},{"name":"Panama","dial_code":"+507","code":"PA"},{"name":"Papua-Neuguinea","dial_code":"+675","code":"PG"},{"name":"Paraguay","dial_code":"+595","code":"PY"},{"name":"Peru","dial_code":"+51","code":"PE"},{"name":"Philippinen","dial_code":"+63","code":"PH"},{"name":"Pitcairn","dial_code":"+872","code":"PN"},{"name":"Polen","dial_code":"+48","code":"PL"},{"name":"Portugal","dial_code":"+351","code":"PT"},{"name":"Puerto Rico","dial_code":"+1 939","code":"PR"},{"name":"Réunion","dial_code":"+262","code":"RE"},{"name":"Ruanda","dial_code":"+250","code":"RW"},{"name":"Rumänien","dial_code":"+40","code":"RO"},{"name":"Russland","dial_code":"+7","code":"RU"},{"name":"Saint-Barthélemy","dial_code":"+590","code":"BL"},{"name":"Saint-Pierre und Miquelon","dial_code":"+508","code":"PM"},{"name":"Salomon-Inseln","dial_code":"+677","code":"SB"},{"name":"Sambia","dial_code":"+260","code":"ZM"},{"name":"Samoa","dial_code":"+685","code":"WS"},{"name":"San Marino","dial_code":"+378","code":"SM"},{"name":"Sao Tome und Principe","dial_code":"+239","code":"ST"},{"name":"Saudi-Arabien","dial_code":"+966","code":"SA"},{"name":"Schweden","dial_code":"+46","code":"SE"},{"name":"Schweiz","dial_code":"+41","code":"CH"},{"name":"Senegal","dial_code":"+221","code":"SN"},{"name":"Serbien","dial_code":"+381","code":"RS"},{"name":"Seychellen","dial_code":"+248","code":"SC"},{"name":"Sierra Leone","dial_code":"+232","code":"SL"},{"name":"Singapur","dial_code":"+65","code":"SG"},{"name":"Slowakei","dial_code":"+421","code":"SK"},{"name":"Slowenien","dial_code":"+386","code":"SI"},{"name":"Somalia","dial_code":"+252","code":"SO"},{"name":"Spanien","dial_code":"+34","code":"ES"},{"name":"Spitzbergen und Jan Mayen","dial_code":"+47","code":"SJ"},{"name":"Sri Lanka","dial_code":"+94","code":"LK"},{"name":"St. Helena, Ascension und Tristan da Cunha","dial_code":"+290","code":"SH"},{"name":"St. Kitts und Nevis","dial_code":"+1 869","code":"KN"},{"name":"St. Lucia","dial_code":"+1 758","code":"LC"},{"name":"St. Martin","dial_code":"+590","code":"MF"},{"name":"St. Vincent und die Grenadinen","dial_code":"+1 784","code":"VC"},{"name":"Südafrika","dial_code":"+27","code":"ZA"},{"name":"Sudan","dial_code":"+249","code":"SD"},{"name":"Südgeorgien und die südlichen Sandwichinseln","dial_code":"+500","code":"GS"},{"name":"Suriname","dial_code":"+597","code":"SR"},{"name":"Swasiland","dial_code":"+268","code":"SZ"},{"name":"Syrische Arabische Republik","dial_code":"+963","code":"SY"},{"name":"Tadschikistan","dial_code":"+992","code":"TJ"},{"name":"Taiwan","dial_code":"+886","code":"TW"},{"name":"Tansania, Vereinigte Republik","dial_code":"+255","code":"TZ"},{"name":"Thailand","dial_code":"+66","code":"TH"},{"name":"Togo","dial_code":"+228","code":"TG"},{"name":"Tokelau","dial_code":"+690","code":"TK"},{"name":"Tonga","dial_code":"+676","code":"TO"},{"name":"Trinidad und Tobago","dial_code":"+1 868","code":"TT"},{"name":"Tschad","dial_code":"+56","code":"CL"},{"name":"Tschechische Republik","dial_code":"+45","code":"DK"},{"name":"Tunesien","dial_code":"+216","code":"TN"},{"name":"Türkei","dial_code":"+90","code":"TR"},{"name":"Turkmenistan","dial_code":"+993","code":"TM"},{"name":"Turks- und Caicosinseln","dial_code":"+1 649","code":"TC"},{"name":"Tuvalu","dial_code":"+688","code":"TV"},{"name":"Uganda","dial_code":"+256","code":"UG"},{"name":"Ukraine","dial_code":"+380","code":"UA"},{"name":"Ungarn","dial_code":"+354","code":"IS"},{"name":"Uruguay","dial_code":"+598","code":"UY"},{"name":"Usbekistan","dial_code":"+998","code":"UZ"},{"name":"Vanuatu","dial_code":"+678","code":"VU"},{"name":"Venezuela, Bolivarische Republik","dial_code":"+58","code":"VE"},{"name":"Vereinigte Arabische Emirate","dial_code":"+971","code":"AE"},{"name":"Vereinigte Staaten von Amerika","dial_code":"+1","code":"US"},{"name":"Vereinigtes Königreich Großbritannien und Nordirland","dial_code":"+44","code":"GB"},{"name":"Vietnam","dial_code":"+84","code":"VN"},{"name":"Wallis und Futuna","dial_code":"+681","code":"WF"},{"name":"Weihnachtsinsel","dial_code":"+61","code":"CC"},{"name":"Zentralafrikanische Republik","dial_code":"+235","code":"TD"},{"name":"Zimbabwe","dial_code":"+263","code":"ZW"},{"name":"Zypern","dial_code":"+420","code":"CZ"}]}