{"countryCodes":[{"name":"Afeganistão","dial_code":"+93","code":"AF"},{"name":"Albânia","dial_code":"+355","code":"AL"},{"name":"Alemanha","dial_code":"+233","code":"GH"},{"name":"Andorra","dial_code":"+376","code":"AD"},{"name":"Angola","dial_code":"+244","code":"AO"},{"name":"Anguila","dial_code":"+1 264","code":"AI"},{"name":"Antártida","dial_code":"","code":"AQ"},{"name":"Antígua e Barbuda","dial_code":"+1268","code":"AG"},{"name":"Antilhas Neerlandesas","dial_code":"+31","code":"NL"},{"name":"Argélia","dial_code":"+213","code":"DZ"},{"name":"Argentina","dial_code":"+374","code":"AM"},{"name":"Armênia","dial_code":"+297","code":"AW"},{"name":"Aruba","dial_code":"+61","code":"AU"},{"name":"Austrália","dial_code":"+43","code":"AT"},{"name":"Áustria","dial_code":"+994","code":"AZ"},{"name":"Azerbaijão","dial_code":"+1 242","code":"BS"},{"name":"Bahamas","dial_code":"+973","code":"BH"},{"name":"Bahrein","dial_code":"+880","code":"BD"},{"name":"Bangladesh","dial_code":"+1 246","code":"BB"},{"name":"Barbados","dial_code":"+375","code":"BY"},{"name":"Belarus","dial_code":"+32","code":"BE"},{"name":"Bélgica","dial_code":"+501","code":"BZ"},{"name":"Belize","dial_code":"+229","code":"BJ"},{"name":"Benim","dial_code":"+1 441","code":"BM"},{"name":"Bermudas","dial_code":"+975","code":"BT"},{"name":"Bolívia, Estado Plurinacional da","dial_code":"+387","code":"BA"},{"name":"Bósnia e Herzegovina","dial_code":"+267","code":"BW"},{"name":"Botsuana","dial_code":"+55","code":"BR"},{"name":"Brasil","dial_code":"+246","code":"IO"},{"name":"Brunei","dial_code":"+359","code":"BG"},{"name":"Bulgária","dial_code":"+226","code":"BF"},{"name":"Burquina Fasso","dial_code":"+257","code":"BI"},{"name":"Burundi","dial_code":"+855","code":"KH"},{"name":"Butão","dial_code":"+591","code":"BO"},{"name":"Cabo Verde","dial_code":"+ 345","code":"KY"},{"name":"Camarões","dial_code":"+1","code":"CA"},{"name":"Camboja","dial_code":"+237","code":"CM"},{"name":"Canadá","dial_code":"+238","code":"CV"},{"name":"Cazaquistão","dial_code":"+254","code":"KE"},{"name":"Chade","dial_code":"+56","code":"CL"},{"name":"Chile","dial_code":"+86","code":"CN"},{"name":"China","dial_code":"+61","code":"CX"},{"name":"Chipre","dial_code":"+420","code":"CZ"},{"name":"Colômbia","dial_code":"+269","code":"KM"},{"name":"Comores","dial_code":"+242","code":"CG"},{"name":"Congo","dial_code":"+243","code":"CD"},{"name":"Congo, República Democrática do","dial_code":"+682","code":"CK"},{"name":"Coreia, República de","dial_code":"+965","code":"KW"},{"name":"Coreia, República Popular Democrática de","dial_code":"+82","code":"KR"},{"name":"Costa do Marfim","dial_code":"+385","code":"HR"},{"name":"Costa Rica","dial_code":"+225","code":"CI"},{"name":"Croácia","dial_code":"+53","code":"CU"},{"name":"Cuba","dial_code":"+537","code":"CY"},{"name":"Dinamarca","dial_code":"+253","code":"DJ"},{"name":"Djibuti","dial_code":"+1 767","code":"DM"},{"name":"Domínica","dial_code":"+1 849","code":"DO"},{"name":"Egito","dial_code":"+503","code":"SV"},{"name":"El Salvador","dial_code":"+240","code":"GQ"},{"name":"Equador","dial_code":"+20","code":"EG"},{"name":"Eritreia","dial_code":"+372","code":"EE"},{"name":"Estônia","dial_code":"+251","code":"ET"},{"name":"Etiópia","dial_code":"+500","code":"FK"},{"name":"Fiji","dial_code":"+358","code":"FI"},{"name":"Finlândia","dial_code":"+33","code":"FR"},{"name":"França","dial_code":"+594","code":"GF"},{"name":"Gabão","dial_code":"+220","code":"GM"},{"name":"Gâmbia","dial_code":"+995","code":"GE"},{"name":"Gana","dial_code":"+350","code":"GI"},{"name":"Geórgia","dial_code":"+49","code":"DE"},{"name":"Gibraltar","dial_code":"+30","code":"GR"},{"name":"Granada","dial_code":"+590","code":"GP"},{"name":"Grécia","dial_code":"+299","code":"GL"},{"name":"Gronelândia","dial_code":"+1 473","code":"GD"},{"name":"Guadalupe","dial_code":"+1 671","code":"GU"},{"name":"Guam","dial_code":"+502","code":"GT"},{"name":"Guatemala","dial_code":"+44","code":"GG"},{"name":"Guernsey","dial_code":"+224","code":"GN"},{"name":"Guiana","dial_code":"+509","code":"HT"},{"name":"Guiana Francesa","dial_code":"+689","code":"PF"},{"name":"Guiné-Bissau","dial_code":"+595","code":"GY"},{"name":"Haiti","dial_code":"+379","code":"VA"},{"name":"Honduras","dial_code":"+852","code":"HK"},{"name":"Hong Kong","dial_code":"+36","code":"HU"},{"name":"Hungria","dial_code":"+354","code":"IS"},{"name":"Ilha Christmas","dial_code":"+61","code":"CC"},{"name":"Ilha de Man","dial_code":"+972","code":"IL"},{"name":"Ilha Norfolk","dial_code":"+683","code":"NU"},{"name":"Ilhas Aland","dial_code":"+54","code":"AR"},{"name":"Ilhas Cayman","dial_code":"+236","code":"CF"},{"name":"Ilhas Cocos (Keeling)","dial_code":"+57","code":"CO"},{"name":"Ilhas Cook","dial_code":"+506","code":"CR"},{"name":"Ilhas Feroe","dial_code":"+679","code":"FJ"},{"name":"Ilhas Malvinas","dial_code":"+298","code":"FO"},{"name":"Ilhas Marianas do Norte","dial_code":"+1 670","code":"MP"},{"name":"Ilhas Marshall","dial_code":"+356","code":"MT"},{"name":"Índia","dial_code":"+62","code":"ID"},{"name":"Indonésia","dial_code":"+98","code":"IR"},{"name":"Irã, República Islâmica do","dial_code":"+964","code":"IQ"},{"name":"Iraque","dial_code":"+353","code":"IE"},{"name":"Irlanda","dial_code":"+44","code":"IM"},{"name":"Islândia","dial_code":"+91","code":"IN"},{"name":"Israel","dial_code":"+972","code":"IL"},{"name":"Israel","dial_code":"+39","code":"IT"},{"name":"Itália","dial_code":"+1 876","code":"JM"},{"name":"Jamaica","dial_code":"+81","code":"JP"},{"name":"Japão","dial_code":"+44","code":"JE"},{"name":"Jersey","dial_code":"+962","code":"JO"},{"name":"Jordânia","dial_code":"+7 7","code":"KZ"},{"name":"Kiribati","dial_code":"+850","code":"KP"},{"name":"Kuwait","dial_code":"+996","code":"KG"},{"name":"Lesoto","dial_code":"+266","code":"LS"},{"name":"Letónia","dial_code":"+371","code":"LV"},{"name":"Líbano","dial_code":"+961","code":"LB"},{"name":"Libéria","dial_code":"+231","code":"LR"},{"name":"Líbia","dial_code":"+218","code":"LY"},{"name":"Liechtenstein","dial_code":"+423","code":"LI"},{"name":"Lituânia","dial_code":"+370","code":"LT"},{"name":"Luxemburgo","dial_code":"+352","code":"LU"},{"name":"Macau","dial_code":"+853","code":"MO"},{"name":"Macedônia do Norte","dial_code":"+672","code":"NF"},{"name":"Madagáscar","dial_code":"+389","code":"MK"},{"name":"Malásia","dial_code":"+265","code":"MW"},{"name":"Malawi","dial_code":"+261","code":"MG"},{"name":"Maldivas","dial_code":"+60","code":"MY"},{"name":"Mali","dial_code":"+960","code":"MV"},{"name":"Malta","dial_code":"+223","code":"ML"},{"name":"Marrocos","dial_code":"+1664","code":"MS"},{"name":"Martinica","dial_code":"+692","code":"MH"},{"name":"Maurícia","dial_code":"+222","code":"MR"},{"name":"Mauritânia","dial_code":"+596","code":"MQ"},{"name":"Mayotte","dial_code":"+230","code":"MU"},{"name":"México","dial_code":"+262","code":"YT"},{"name":"Micronésia, Estados Federados da","dial_code":"+52","code":"MX"},{"name":"Moçambique","dial_code":"+212","code":"MA"},{"name":"Moldávia, República da","dial_code":"+691","code":"FM"},{"name":"Mónaco","dial_code":"+373","code":"MD"},{"name":"Mongólia","dial_code":"+377","code":"MC"},{"name":"Monserrate","dial_code":"+382","code":"ME"},{"name":"Montenegro","dial_code":"+976","code":"MN"},{"name":"Myanmar","dial_code":"+258","code":"MZ"},{"name":"Namíbia","dial_code":"+95","code":"MM"},{"name":"Nauru","dial_code":"+264","code":"NA"},{"name":"Nepal","dial_code":"+674","code":"NR"},{"name":"Nicarágua","dial_code":"+64","code":"NZ"},{"name":"Níger","dial_code":"+505","code":"NI"},{"name":"Nigéria","dial_code":"+227","code":"NE"},{"name":"Niue","dial_code":"+234","code":"NG"},{"name":"Noruega","dial_code":"+47","code":"NO"},{"name":"Nova Caledónia","dial_code":"+599","code":"AN"},{"name":"Nova Zelândia","dial_code":"+687","code":"NC"},{"name":"Omã","dial_code":"+968","code":"OM"},{"name":"Países Baixos","dial_code":"+977","code":"NP"},{"name":"Palau","dial_code":"+680","code":"PW"},{"name":"Palestina, Estado da ","dial_code":"+970","code":"PS"},{"name":"Panamá","dial_code":"+507","code":"PA"},{"name":"Papua-Nova Guiné","dial_code":"+675","code":"PG"},{"name":"Paquistão","dial_code":"+92","code":"PK"},{"name":"Polinésia Francesa","dial_code":"+241","code":"GA"},{"name":"Quênia","dial_code":"+686","code":"KI"},{"name":"Quirguistão","dial_code":"","code":"AX"},{"name":"República Centro-Africana","dial_code":"+235","code":"TD"},{"name":"República Democrática Popular do Lao","dial_code":"+856","code":"LA"},{"name":"República Dominicana","dial_code":"+593","code":"EC"},{"name":"República Tcheca","dial_code":"+45","code":"DK"},{"name":"Samoa Americana","dial_code":"+1 684","code":"AS"},{"name":"Santa Sé (Estado da Cidade do Vaticano)","dial_code":"+504","code":"HN"},{"name":"Território britânico do Oceano Índico","dial_code":"+673","code":"BN"},{"name":"Британские Виргинские острова","dial_code":"+1 284","code":"VG"},{"name":"Вануату","dial_code":"+678","code":"VU"},{"name":"Венесуэла, Боливарианская Республика Венесуэла","dial_code":"+58","code":"VE"},{"name":"Виргинские острова (США)","dial_code":"+1 340","code":"VI"},{"name":"Восточный Тимор","dial_code":"+670","code":"TL"},{"name":"Вьетнам","dial_code":"+84","code":"VN"},{"name":"Гвинея","dial_code":"+245","code":"GW"},{"name":"Замбия","dial_code":"+260","code":"ZM"},{"name":"Зимбабве","dial_code":"+263","code":"ZW"},{"name":"Испания","dial_code":"+34","code":"ES"},{"name":"Йемен","dial_code":"+967","code":"YE"},{"name":"Катар","dial_code":"+974","code":"QA"},{"name":"Объединенные Арабские Эмираты","dial_code":"+971","code":"AE"},{"name":"Острова Святой Елены, Вознесения и Тристан-да-Кунья","dial_code":"+290","code":"SH"},{"name":"Острова Теркс и Кайкос","dial_code":"+1 649","code":"TC"},{"name":"Парагвай","dial_code":"+595","code":"PY"},{"name":"Перу","dial_code":"+51","code":"PE"},{"name":"Питкэрн","dial_code":"+872","code":"PN"},{"name":"Польша","dial_code":"+48","code":"PL"},{"name":"Португалия","dial_code":"+351","code":"PT"},{"name":"Пуэрто-Рико","dial_code":"+1 939","code":"PR"},{"name":"Реюньон","dial_code":"+262","code":"RE"},{"name":"Россия","dial_code":"+7","code":"RU"},{"name":"Руанда","dial_code":"+250","code":"RW"},{"name":"Румыния","dial_code":"+40","code":"RO"},{"name":"Самоа","dial_code":"+685","code":"WS"},{"name":"Сан-Марино","dial_code":"+378","code":"SM"},{"name":"Сан-Томе и Принсипи","dial_code":"+239","code":"ST"},{"name":"Саудовская Аравия","dial_code":"+966","code":"SA"},{"name":"Свазиленд","dial_code":"+268","code":"SZ"},{"name":"Сейшельские острова","dial_code":"+248","code":"SC"},{"name":"Сен-Бартелеми","dial_code":"+590","code":"BL"},{"name":"Сенегал","dial_code":"+221","code":"SN"},{"name":"Сен-Мартен","dial_code":"+590","code":"MF"},{"name":"Сен-Пьер и Микелон","dial_code":"+508","code":"PM"},{"name":"Сент-Винсент и Гренадины","dial_code":"+1 784","code":"VC"},{"name":"Сент-Китс и Невис","dial_code":"+1 869","code":"KN"},{"name":"Сент-Люсия","dial_code":"+1 758","code":"LC"},{"name":"Сербия","dial_code":"+381","code":"RS"},{"name":"Сингапур","dial_code":"+65","code":"SG"},{"name":"Сирийская Арабская Республика","dial_code":"+963","code":"SY"},{"name":"Словакия","dial_code":"+421","code":"SK"},{"name":"Словения","dial_code":"+386","code":"SI"},{"name":"Соединенное Королевство Великобритании и Северной Ирландии","dial_code":"+44","code":"GB"},{"name":"Соединенные Штаты Америки","dial_code":"+1","code":"US"},{"name":"Соломоновы острова","dial_code":"+677","code":"SB"},{"name":"Сомали","dial_code":"+252","code":"SO"},{"name":"Судан","dial_code":"+249","code":"SD"},{"name":"Суринам","dial_code":"+597","code":"SR"},{"name":"Сьерра-Леоне","dial_code":"+232","code":"SL"},{"name":"Таджикистан","dial_code":"+992","code":"TJ"},{"name":"Таиланд","dial_code":"+66","code":"TH"},{"name":"Тайвань","dial_code":"+886","code":"TW"},{"name":"Танзания, Объединенная Республика Танзания","dial_code":"+255","code":"TZ"},{"name":"Того","dial_code":"+228","code":"TG"},{"name":"Токелау","dial_code":"+690","code":"TK"},{"name":"Тонга","dial_code":"+676","code":"TO"},{"name":"Тринидад и Тобаго","dial_code":"+1 868","code":"TT"},{"name":"Тувалу","dial_code":"+688","code":"TV"},{"name":"Тунис","dial_code":"+216","code":"TN"},{"name":"Туркменистан","dial_code":"+993","code":"TM"},{"name":"Турция","dial_code":"+90","code":"TR"},{"name":"Уганда","dial_code":"+256","code":"UG"},{"name":"Узбекистан","dial_code":"+998","code":"UZ"},{"name":"Украина","dial_code":"+380","code":"UA"},{"name":"Уоллис и Футуна","dial_code":"+681","code":"WF"},{"name":"Уругвай","dial_code":"+598","code":"UY"},{"name":"Филиппины","dial_code":"+63","code":"PH"},{"name":"Швейцария","dial_code":"+41","code":"CH"},{"name":"Швеция","dial_code":"+46","code":"SE"},{"name":"Шпицберген и Ян-Майен","dial_code":"+47","code":"SJ"},{"name":"Шри-Ланка","dial_code":"+94","code":"LK"},{"name":"Экваториальная Guiné","dial_code":"+291","code":"ER"},{"name":"Южная Африка","dial_code":"+27","code":"ZA"},{"name":"Южная Георгия и Южные Сандвичевы острова","dial_code":"+500","code":"GS"}]}