{
  "font": "Jost-Light",
  "countryCodes": [
    {
      "name": "Afghanistan",
      "dial_code": "+93",
      "code": "AF"
    },
    {
      "name": "Albania",
      "dial_code": "+355",
      "code": "AL"
    },
    {
      "name": "Algeria",
      "dial_code": "+213",
      "code": "DZ"
    },
    {
      "name": "Samoa Americane",
      "dial_code": "+1 684",
      "code": "AS"
    },
    {
      "name": "Andorra",
      "dial_code": "+376",
      "code": "AD"
    },
    {
      "name": "Angola",
      "dial_code": "+244",
      "code": "AO"
    },
    {
      "name": "Anguilla",
      "dial_code": "+1 264",
      "code": "AI"
    },
    {
      "name": "Antartide",
      "dial_code": "",
      "code": "AQ"
    },
    {
      "name": "Antigua e Barbuda",
      "dial_code": "+1268",
      "code": "AG"
    },
    {
      "name": "Isole Aland",
      "dial_code": "+54",
      "code": "AR"
    },
    {
      "name": "Argentina",
      "dial_code": "+374",
      "code": "AM"
    },
    {
      "name": "Armenia",
      "dial_code": "+297",
      "code": "AW"
    },
    {
      "name": "Aruba",
      "dial_code": "+61",
      "code": "AU"
    },
    {
      "name": "Australia",
      "dial_code": "+43",
      "code": "AT"
    },
    {
      "name": "Austria",
      "dial_code": "+994",
      "code": "AZ"
    },
    {
      "name": "Azerbaigian",
      "dial_code": "+1 242",
      "code": "BS"
    },
    {
      "name": "Bahamas",
      "dial_code": "+973",
      "code": "BH"
    },
    {
      "name": "Bahrein",
      "dial_code": "+880",
      "code": "BD"
    },
    {
      "name": "Bangladesh",
      "dial_code": "+1 246",
      "code": "BB"
    },
    {
      "name": "Barbados",
      "dial_code": "+375",
      "code": "BY"
    },
    {
      "name": "Bielorussia",
      "dial_code": "+32",
      "code": "BE"
    },
    {
      "name": "Belgio",
      "dial_code": "+501",
      "code": "BZ"
    },
    {
      "name": "Belize",
      "dial_code": "+229",
      "code": "BJ"
    },
    {
      "name": "Benin",
      "dial_code": "+1 441",
      "code": "BM"
    },
    {
      "name": "Bermuda",
      "dial_code": "+975",
      "code": "BT"
    },
    {
      "name": "Bhutan",
      "dial_code": "+591",
      "code": "BO"
    },
    {
      "name": "Bolivia, Stato Plurinazionale di",
      "dial_code": "+387",
      "code": "BA"
    },
    {
      "name": "Bosnia ed Erzegovina",
      "dial_code": "+267",
      "code": "BW"
    },
    {
      "name": "Botswana",
      "dial_code": "+55",
      "code": "BR"
    },
    {
      "name": "Brasile",
      "dial_code": "+246",
      "code": "IO"
    },
    {
      "name": "Territorio britannico dell'Oceano Indiano",
      "dial_code": "+673",
      "code": "BN"
    },
    {
      "name": "Brunei, Stato del",
      "dial_code": "+359",
      "code": "BG"
    },
    {
      "name": "Bulgaria",
      "dial_code": "+226",
      "code": "BF"
    },
    {
      "name": "Burkina Faso",
      "dial_code": "+257",
      "code": "BI"
    },
    {
      "name": "Burundi",
      "dial_code": "+855",
      "code": "KH"
    },
    {
      "name": "Cambogia",
      "dial_code": "+237",
      "code": "CM"
    },
    {
      "name": "Camerun",
      "dial_code": "+1",
      "code": "CA"
    },
    {
      "name": "Canada",
      "dial_code": "+238",
      "code": "CV"
    },
    {
      "name": "Capo Verde",
      "dial_code": "+ 345",
      "code": "KY"
    },
    {
      "name": "Isole Cayman",
      "dial_code": "+236",
      "code": "CF"
    },
    {
      "name": "Repubblica Centrafricana",
      "dial_code": "+235",
      "code": "TD"
    },
    {
      "name": "Chad",
      "dial_code": "+56",
      "code": "CL"
    },
    {
      "name": "Cile",
      "dial_code": "+86",
      "code": "CN"
    },
    {
      "name": "Cina",
      "dial_code": "+61",
      "code": "CX"
    },
    {
      "name": "Isola di Natale",
      "dial_code": "+61",
      "code": "CC"
    },
    {
      "name": "Isole Cocos (Keeling)",
      "dial_code": "+57",
      "code": "CO"
    },
    {
      "name": "Colombia",
      "dial_code": "+269",
      "code": "KM"
    },
    {
      "name": "Comore",
      "dial_code": "+242",
      "code": "CG"
    },
    {
      "name": "Congo",
      "dial_code": "+243",
      "code": "CD"
    },
    {
      "name": "Congo, Repubblica Democratica del",
      "dial_code": "+682",
      "code": "CK"
    },
    {
      "name": "Isole Cook",
      "dial_code": "+506",
      "code": "CR"
    },
    {
      "name": "Costa Rica",
      "dial_code": "+225",
      "code": "CI"
    },
    {
      "name": "Costa d'Avorio",
      "dial_code": "+385",
      "code": "HR"
    },
    {
      "name": "Croazia",
      "dial_code": "+53",
      "code": "CU"
    },
    {
      "name": "Cuba",
      "dial_code": "+537",
      "code": "CY"
    },
    {
      "name": "Cipro",
      "dial_code": "+420",
      "code": "CZ"
    },
    {
      "name": "Repubblica Ceca",
      "dial_code": "+45",
      "code": "DK"
    },
    {
      "name": "Danimarca",
      "dial_code": "+253",
      "code": "DJ"
    },
    {
      "name": "Gibuti",
      "dial_code": "+1 767",
      "code": "DM"
    },
    {
      "name": "Dominica",
      "dial_code": "+1 849",
      "code": "DO"
    },
    {
      "name": "Repubblica Dominicana",
      "dial_code": "+593",
      "code": "EC"
    },
    {
      "name": "Ecuador",
      "dial_code": "+20",
      "code": "EG"
    },
    {
      "name": "Egitto",
      "dial_code": "+503",
      "code": "SV"
    },
    {
      "name": "El Salvador",
      "dial_code": "+240",
      "code": "GQ"
    },
    {
      "name": "Экваториальная Guinea",
      "dial_code": "+291",
      "code": "ER"
    },
    {
      "name": "Eritrea",
      "dial_code": "+372",
      "code": "EE"
    },
    {
      "name": "Estonia",
      "dial_code": "+251",
      "code": "ET"
    },
    {
      "name": "Etiopia",
      "dial_code": "+500",
      "code": "FK"
    },
    {
      "name": "Isole Falkland (Isole Malvine)",
      "dial_code": "+298",
      "code": "FO"
    },
    {
      "name": "Isole Faroe",
      "dial_code": "+679",
      "code": "FJ"
    },
    {
      "name": "Figi",
      "dial_code": "+358",
      "code": "FI"
    },
    {
      "name": "Finlandia",
      "dial_code": "+33",
      "code": "FR"
    },
    {
      "name": "Francia",
      "dial_code": "+594",
      "code": "GF"
    },
    {
      "name": "Guyana francese",
      "dial_code": "+689",
      "code": "PF"
    },
    {
      "name": "Polinesia francese",
      "dial_code": "+241",
      "code": "GA"
    },
    {
      "name": "Gabon",
      "dial_code": "+220",
      "code": "GM"
    },
    {
      "name": "Gambia",
      "dial_code": "+995",
      "code": "GE"
    },
    {
      "name": "Georgia",
      "dial_code": "+49",
      "code": "DE"
    },
    {
      "name": "Germania",
      "dial_code": "+233",
      "code": "GH"
    },
    {
      "name": "Ghana",
      "dial_code": "+350",
      "code": "GI"
    },
    {
      "name": "Gibilterra",
      "dial_code": "+30",
      "code": "GR"
    },
    {
      "name": "Grecia",
      "dial_code": "+299",
      "code": "GL"
    },
    {
      "name": "Groenlandia",
      "dial_code": "+1 473",
      "code": "GD"
    },
    {
      "name": "Grenada",
      "dial_code": "+590",
      "code": "GP"
    },
    {
      "name": "Guadalupa",
      "dial_code": "+1 671",
      "code": "GU"
    },
    {
      "name": "Guam",
      "dial_code": "+502",
      "code": "GT"
    },
    {
      "name": "Guatemala",
      "dial_code": "+44",
      "code": "GG"
    },
    {
      "name": "Guernsey",
      "dial_code": "+224",
      "code": "GN"
    },
    {
      "name": "Гвинея",
      "dial_code": "+245",
      "code": "GW"
    },
    {
      "name": "Guinea-Bissau",
      "dial_code": "+595",
      "code": "GY"
    },
    {
      "name": "Guyana",
      "dial_code": "+509",
      "code": "HT"
    },
    {
      "name": "Haiti",
      "dial_code": "+379",
      "code": "VA"
    },
    {
      "name": "Santa Sede (Stato della Città del Vaticano)",
      "dial_code": "+504",
      "code": "HN"
    },
    {
      "name": "Honduras",
      "dial_code": "+852",
      "code": "HK"
    },
    {
      "name": "Hong Kong",
      "dial_code": "+36",
      "code": "HU"
    },
    {
      "name": "Ungheria",
      "dial_code": "+354",
      "code": "IS"
    },
    {
      "name": "Islanda",
      "dial_code": "+91",
      "code": "IN"
    },
    {
      "name": "India",
      "dial_code": "+62",
      "code": "ID"
    },
    {
      "name": "Indonesia",
      "dial_code": "+98",
      "code": "IR"
    },
    {
      "name": "Iran, Repubblica Islamica dell'",
      "dial_code": "+964",
      "code": "IQ"
    },
    {
      "name": "Iraq",
      "dial_code": "+353",
      "code": "IE"
    },
    {
      "name": "Irlanda",
      "dial_code": "+44",
      "code": "IM"
    },
    {
      "name": "Isola di Man",
      "dial_code": "+972",
      "code": "IL"
    },
    {
      "name": "Israele",
      "dial_code": "+972",
      "code": "IL"
    },
    {
      "name": "Israele",
      "dial_code": "+39",
      "code": "IT"
    },
    {
      "name": "Italia",
      "dial_code": "+1 876",
      "code": "JM"
    },
    {
      "name": "Giamaica",
      "dial_code": "+81",
      "code": "JP"
    },
    {
      "name": "Giappone",
      "dial_code": "+44",
      "code": "JE"
    },
    {
      "name": "Maglia",
      "dial_code": "+962",
      "code": "JO"
    },
    {
      "name": "Giordania",
      "dial_code": "+7 7",
      "code": "KZ"
    },
    {
      "name": "Kazakistan",
      "dial_code": "+254",
      "code": "KE"
    },
    {
      "name": "Kenya",
      "dial_code": "+686",
      "code": "KI"
    },
    {
      "name": "Kiribati",
      "dial_code": "+850",
      "code": "KP"
    },
    {
      "name": "Corea, Repubblica Popolare Democratica di",
      "dial_code": "+82",
      "code": "KR"
    },
    {
      "name": "Corea, Repubblica di",
      "dial_code": "+965",
      "code": "KW"
    },
    {
      "name": "Kuwait",
      "dial_code": "+996",
      "code": "KG"
    },
    {
      "name": "Kirghizistan",
      "dial_code": "",
      "code": "AX"
    },
    {
      "name": "Repubblica Democratica Popolare del Laos",
      "dial_code": "+856",
      "code": "LA"
    },
    {
      "name": "Lettonia",
      "dial_code": "+371",
      "code": "LV"
    },
    {
      "name": "Libano",
      "dial_code": "+961",
      "code": "LB"
    },
    {
      "name": "Lesotho",
      "dial_code": "+266",
      "code": "LS"
    },
    {
      "name": "Liberia",
      "dial_code": "+231",
      "code": "LR"
    },
    {
      "name": "Libia",
      "dial_code": "+218",
      "code": "LY"
    },
    {
      "name": "Liechtenstein",
      "dial_code": "+423",
      "code": "LI"
    },
    {
      "name": "Lituania",
      "dial_code": "+370",
      "code": "LT"
    },
    {
      "name": "Lussemburgo",
      "dial_code": "+352",
      "code": "LU"
    },
    {
      "name": "Macao",
      "dial_code": "+853",
      "code": "MO"
    },
    {
      "name": "Madagascar",
      "dial_code": "+389",
      "code": "MK"
    },
    {
      "name": "Malawi",
      "dial_code": "+261",
      "code": "MG"
    },
    {
      "name": "Malaysia",
      "dial_code": "+265",
      "code": "MW"
    },
    {
      "name": "Maldive",
      "dial_code": "+60",
      "code": "MY"
    },
    {
      "name": "Mali",
      "dial_code": "+960",
      "code": "MV"
    },
    {
      "name": "Malta",
      "dial_code": "+223",
      "code": "ML"
    },
    {
      "name": "Isole Marshall",
      "dial_code": "+356",
      "code": "MT"
    },
    {
      "name": "Martinica",
      "dial_code": "+692",
      "code": "MH"
    },
    {
      "name": "Mauritania",
      "dial_code": "+596",
      "code": "MQ"
    },
    {
      "name": "Mauritius",
      "dial_code": "+222",
      "code": "MR"
    },
    {
      "name": "Mayotte",
      "dial_code": "+230",
      "code": "MU"
    },
    {
      "name": "Messico",
      "dial_code": "+262",
      "code": "YT"
    },
    {
      "name": "Micronesia, Stati Federati di",
      "dial_code": "+52",
      "code": "MX"
    },
    {
      "name": "Moldavia, Repubblica di",
      "dial_code": "+691",
      "code": "FM"
    },
    {
      "name": "Monaco",
      "dial_code": "+373",
      "code": "MD"
    },
    {
      "name": "Mongolia",
      "dial_code": "+377",
      "code": "MC"
    },
    {
      "name": "Montenegro",
      "dial_code": "+976",
      "code": "MN"
    },
    {
      "name": "Montserrat",
      "dial_code": "+382",
      "code": "ME"
    },
    {
      "name": "Marocco",
      "dial_code": "+1664",
      "code": "MS"
    },
    {
      "name": "Mozambico",
      "dial_code": "+212",
      "code": "MA"
    },
    {
      "name": "Birmania (Myanmar)",
      "dial_code": "+258",
      "code": "MZ"
    },
    {
      "name": "Namibia",
      "dial_code": "+95",
      "code": "MM"
    },
    {
      "name": "Nauru",
      "dial_code": "+264",
      "code": "NA"
    },
    {
      "name": "Nepal",
      "dial_code": "+674",
      "code": "NR"
    },
    {
      "name": "Paesi Bassi",
      "dial_code": "+977",
      "code": "NP"
    },
    {
      "name": "Antille Olandesi",
      "dial_code": "+31",
      "code": "NL"
    },
    {
      "name": "Nuova Caledonia",
      "dial_code": "+599",
      "code": "AN"
    },
    {
      "name": "Nuova Zelanda",
      "dial_code": "+687",
      "code": "NC"
    },
    {
      "name": "Nicaragua",
      "dial_code": "+64",
      "code": "NZ"
    },
    {
      "name": "Niger",
      "dial_code": "+505",
      "code": "NI"
    },
    {
      "name": "Nigeria",
      "dial_code": "+227",
      "code": "NE"
    },
    {
      "name": "Niue",
      "dial_code": "+234",
      "code": "NG"
    },
    {
      "name": "Isola di Norfolk",
      "dial_code": "+683",
      "code": "NU"
    },
    {
      "name": "Macedonia del Nord",
      "dial_code": "+672",
      "code": "NF"
    },
    {
      "name": "Isole Marianne Settentrionali",
      "dial_code": "+1 670",
      "code": "MP"
    },
    {
      "name": "Norvegia",
      "dial_code": "+47",
      "code": "NO"
    },
    {
      "name": "Оман",
      "dial_code": "+968",
      "code": "OM"
    },
    {
      "name": "Пакистан",
      "dial_code": "+92",
      "code": "PK"
    },
    {
      "name": "Палау",
      "dial_code": "+680",
      "code": "PW"
    },
    {
      "name": "Палестина, Государство Палестина ",
      "dial_code": "+970",
      "code": "PS"
    },
    {
      "name": "Панама",
      "dial_code": "+507",
      "code": "PA"
    },
    {
      "name": "Папуа-Новая Гвинея",
      "dial_code": "+675",
      "code": "PG"
    },
    {
      "name": "Парагвай",
      "dial_code": "+595",
      "code": "PY"
    },
    {
      "name": "Перу",
      "dial_code": "+51",
      "code": "PE"
    },
    {
      "name": "Филиппины",
      "dial_code": "+63",
      "code": "PH"
    },
    {
      "name": "Питкэрн",
      "dial_code": "+872",
      "code": "PN"
    },
    {
      "name": "Польша",
      "dial_code": "+48",
      "code": "PL"
    },
    {
      "name": "Португалия",
      "dial_code": "+351",
      "code": "PT"
    },
    {
      "name": "Пуэрто-Рико",
      "dial_code": "+1 939",
      "code": "PR"
    },
    {
      "name": "Катар",
      "dial_code": "+974",
      "code": "QA"
    },
    {
      "name": "Реюньон",
      "dial_code": "+262",
      "code": "RE"
    },
    {
      "name": "Румыния",
      "dial_code": "+40",
      "code": "RO"
    },
    {
      "name": "Россия",
      "dial_code": "+7",
      "code": "RU"
    },
    {
      "name": "Руанда",
      "dial_code": "+250",
      "code": "RW"
    },
    {
      "name": "Сен-Бартелеми",
      "dial_code": "+590",
      "code": "BL"
    },
    {
      "name": "Острова Святой Елены, Вознесения и Тристан-да-Кунья",
      "dial_code": "+290",
      "code": "SH"
    },
    {
      "name": "Сент-Китс и Невис",
      "dial_code": "+1 869",
      "code": "KN"
    },
    {
      "name": "Сент-Люсия",
      "dial_code": "+1 758",
      "code": "LC"
    },
    {
      "name": "Сен-Мартен",
      "dial_code": "+590",
      "code": "MF"
    },
    {
      "name": "Сен-Пьер и Микелон",
      "dial_code": "+508",
      "code": "PM"
    },
    {
      "name": "Сент-Винсент и Гренадины",
      "dial_code": "+1 784",
      "code": "VC"
    },
    {
      "name": "Самоа",
      "dial_code": "+685",
      "code": "WS"
    },
    {
      "name": "Сан-Марино",
      "dial_code": "+378",
      "code": "SM"
    },
    {
      "name": "Сан-Томе и Принсипи",
      "dial_code": "+239",
      "code": "ST"
    },
    {
      "name": "Саудовская Аравия",
      "dial_code": "+966",
      "code": "SA"
    },
    {
      "name": "Сенегал",
      "dial_code": "+221",
      "code": "SN"
    },
    {
      "name": "Сербия",
      "dial_code": "+381",
      "code": "RS"
    },
    {
      "name": "Сейшельские острова",
      "dial_code": "+248",
      "code": "SC"
    },
    {
      "name": "Сьерра-Леоне",
      "dial_code": "+232",
      "code": "SL"
    },
    {
      "name": "Сингапур",
      "dial_code": "+65",
      "code": "SG"
    },
    {
      "name": "Словакия",
      "dial_code": "+421",
      "code": "SK"
    },
    {
      "name": "Словения",
      "dial_code": "+386",
      "code": "SI"
    },
    {
      "name": "Соломоновы острова",
      "dial_code": "+677",
      "code": "SB"
    },
    {
      "name": "Сомали",
      "dial_code": "+252",
      "code": "SO"
    },
    {
      "name": "Южная Африка",
      "dial_code": "+27",
      "code": "ZA"
    },
    {
      "name": "Южная Георгия и Южные Сандвичевы острова",
      "dial_code": "+500",
      "code": "GS"
    },
    {
      "name": "Испания",
      "dial_code": "+34",
      "code": "ES"
    },
    {
      "name": "Шри-Ланка",
      "dial_code": "+94",
      "code": "LK"
    },
    {
      "name": "Судан",
      "dial_code": "+249",
      "code": "SD"
    },
    {
      "name": "Суринам",
      "dial_code": "+597",
      "code": "SR"
    },
    {
      "name": "Шпицберген и Ян-Майен",
      "dial_code": "+47",
      "code": "SJ"
    },
    {
      "name": "Свазиленд",
      "dial_code": "+268",
      "code": "SZ"
    },
    {
      "name": "Швеция",
      "dial_code": "+46",
      "code": "SE"
    },
    {
      "name": "Швейцария",
      "dial_code": "+41",
      "code": "CH"
    },
    {
      "name": "Сирийская Арабская Республика",
      "dial_code": "+963",
      "code": "SY"
    },
    {
      "name": "Тайвань",
      "dial_code": "+886",
      "code": "TW"
    },
    {
      "name": "Таджикистан",
      "dial_code": "+992",
      "code": "TJ"
    },
    {
      "name": "Танзания, Объединенная Республика Танзания",
      "dial_code": "+255",
      "code": "TZ"
    },
    {
      "name": "Таиланд",
      "dial_code": "+66",
      "code": "TH"
    },
    {
      "name": "Восточный Тимор",
      "dial_code": "+670",
      "code": "TL"
    },
    {
      "name": "Того",
      "dial_code": "+228",
      "code": "TG"
    },
    {
      "name": "Токелау",
      "dial_code": "+690",
      "code": "TK"
    },
    {
      "name": "Тонга",
      "dial_code": "+676",
      "code": "TO"
    },
    {
      "name": "Тринидад и Тобаго",
      "dial_code": "+1 868",
      "code": "TT"
    },
    {
      "name": "Тунис",
      "dial_code": "+216",
      "code": "TN"
    },
    {
      "name": "Турция",
      "dial_code": "+90",
      "code": "TR"
    },
    {
      "name": "Туркменистан",
      "dial_code": "+993",
      "code": "TM"
    },
    {
      "name": "Острова Теркс и Кайкос",
      "dial_code": "+1 649",
      "code": "TC"
    },
    {
      "name": "Тувалу",
      "dial_code": "+688",
      "code": "TV"
    },
    {
      "name": "Уганда",
      "dial_code": "+256",
      "code": "UG"
    },
    {
      "name": "Украина",
      "dial_code": "+380",
      "code": "UA"
    },
    {
      "name": "Объединенные Арабские Эмираты",
      "dial_code": "+971",
      "code": "AE"
    },
    {
      "name": "Соединенное Королевство Великобритании и Северной Ирландии",
      "dial_code": "+44",
      "code": "GB"
    },
    {
      "name": "Соединенные Штаты Америки",
      "dial_code": "+1",
      "code": "US"
    },
    {
      "name": "Уругвай",
      "dial_code": "+598",
      "code": "UY"
    },
    {
      "name": "Узбекистан",
      "dial_code": "+998",
      "code": "UZ"
    },
    {
      "name": "Вануату",
      "dial_code": "+678",
      "code": "VU"
    },
    {
      "name": "Венесуэла, Боливарианская Республика Венесуэла",
      "dial_code": "+58",
      "code": "VE"
    },
    {
      "name": "Вьетнам",
      "dial_code": "+84",
      "code": "VN"
    },
    {
      "name": "Британские Виргинские острова",
      "dial_code": "+1 284",
      "code": "VG"
    },
    {
      "name": "Виргинские острова (США)",
      "dial_code": "+1 340",
      "code": "VI"
    },
    {
      "name": "Уоллис и Футуна",
      "dial_code": "+681",
      "code": "WF"
    },
    {
      "name": "Йемен",
      "dial_code": "+967",
      "code": "YE"
    },
    {
      "name": "Замбия",
      "dial_code": "+260",
      "code": "ZM"
    },
    {
      "name": "Зимбабве",
      "dial_code": "+263",
      "code": "ZW"
    }
  ]
}