{
  "font": "Alibaba-PuHuiTi-Regular",
  "countryCodes": [
    {
      "name": "阿富汗",
      "dial_code": "+93",
      "code": "AF"
    },
    {
      "name": "阿尔巴尼亚",
      "dial_code": "+355",
      "code": "AL"
    },
    {
      "name": "阿尔及利亚",
      "dial_code": "+213",
      "code": "DZ"
    },
    {
      "name": "美属萨摩亚",
      "dial_code": "+1 684",
      "code": "AS"
    },
    {
      "name": "安道尔",
      "dial_code": "+376",
      "code": "AD"
    },
    {
      "name": "安哥拉",
      "dial_code": "+244",
      "code": "AO"
    },
    {
      "name": "安圭拉",
      "dial_code": "+1 264",
      "code": "AI"
    },
    {
      "name": "南极洲",
      "dial_code": "",
      "code": "AQ"
    },
    {
      "name": "安提瓜和巴布达",
      "dial_code": "+1268",
      "code": "AG"
    },
    {
      "name": "奥兰群岛",
      "dial_code": "+54",
      "code": "AR"
    },
    {
      "name": "阿根廷",
      "dial_code": "+374",
      "code": "AM"
    },
    {
      "name": "亚美尼亚",
      "dial_code": "+297",
      "code": "AW"
    },
    {
      "name": "阿鲁巴",
      "dial_code": "+61",
      "code": "AU"
    },
    {
      "name": "澳大利亚",
      "dial_code": "+43",
      "code": "AT"
    },
    {
      "name": "奥地利",
      "dial_code": "+994",
      "code": "AZ"
    },
    {
      "name": "阿塞拜疆",
      "dial_code": "+1 242",
      "code": "BS"
    },
    {
      "name": "巴哈马",
      "dial_code": "+973",
      "code": "BH"
    },
    {
      "name": "巴林",
      "dial_code": "+880",
      "code": "BD"
    },
    {
      "name": "孟加拉",
      "dial_code": "+1 246",
      "code": "BB"
    },
    {
      "name": "巴巴多斯",
      "dial_code": "+375",
      "code": "BY"
    },
    {
      "name": "白俄罗斯",
      "dial_code": "+32",
      "code": "BE"
    },
    {
      "name": "比利时",
      "dial_code": "+501",
      "code": "BZ"
    },
    {
      "name": "伯利兹",
      "dial_code": "+229",
      "code": "BJ"
    },
    {
      "name": "贝宁",
      "dial_code": "+1 441",
      "code": "BM"
    },
    {
      "name": "百慕大",
      "dial_code": "+975",
      "code": "BT"
    },
    {
      "name": "不丹",
      "dial_code": "+591",
      "code": "BO"
    },
    {
      "name": "玻利维亚，多民族国家",
      "dial_code": "+387",
      "code": "BA"
    },
    {
      "name": "波斯尼亚和黑塞哥维纳",
      "dial_code": "+267",
      "code": "BW"
    },
    {
      "name": "博茨瓦纳",
      "dial_code": "+55",
      "code": "BR"
    },
    {
      "name": "巴西",
      "dial_code": "+246",
      "code": "IO"
    },
    {
      "name": "英属印度洋领地",
      "dial_code": "+673",
      "code": "BN"
    },
    {
      "name": "文莱达鲁萨兰国",
      "dial_code": "+359",
      "code": "BG"
    },
    {
      "name": "保加利亚",
      "dial_code": "+226",
      "code": "BF"
    },
    {
      "name": "布基纳法索",
      "dial_code": "+257",
      "code": "BI"
    },
    {
      "name": "布隆迪",
      "dial_code": "+855",
      "code": "KH"
    },
    {
      "name": "柬 埔 寨",
      "dial_code": "+237",
      "code": "CM"
    },
    {
      "name": "喀麦隆",
      "dial_code": "+1",
      "code": "CA"
    },
    {
      "name": "加拿大",
      "dial_code": "+238",
      "code": "CV"
    },
    {
      "name": "佛得角",
      "dial_code": "+ 345",
      "code": "KY"
    },
    {
      "name": "开曼群岛",
      "dial_code": "+236",
      "code": "CF"
    },
    {
      "name": "中非共和国",
      "dial_code": "+235",
      "code": "TD"
    },
    {
      "name": "乍得",
      "dial_code": "+56",
      "code": "CL"
    },
    {
      "name": "智利",
      "dial_code": "+86",
      "code": "CN"
    },
    {
      "name": "中国",
      "dial_code": "+61",
      "code": "CX"
    },
    {
      "name": "圣诞岛",
      "dial_code": "+61",
      "code": "CC"
    },
    {
      "name": "椰子岛（基林岛）",
      "dial_code": "+57",
      "code": "CO"
    },
    {
      "name": "哥伦比亚",
      "dial_code": "+269",
      "code": "KM"
    },
    {
      "name": "科摩罗",
      "dial_code": "+242",
      "code": "CG"
    },
    {
      "name": "刚果",
      "dial_code": "+243",
      "code": "CD"
    },
    {
      "name": "刚果, 刚果民主共和国",
      "dial_code": "+682",
      "code": "CK"
    },
    {
      "name": "库克群岛",
      "dial_code": "+506",
      "code": "CR"
    },
    {
      "name": "哥斯达黎加",
      "dial_code": "+225",
      "code": "CI"
    },
    {
      "name": "科特迪瓦",
      "dial_code": "+385",
      "code": "HR"
    },
    {
      "name": "克罗地亚",
      "dial_code": "+53",
      "code": "CU"
    },
    {
      "name": "古巴",
      "dial_code": "+537",
      "code": "CY"
    },
    {
      "name": "塞浦路斯",
      "dial_code": "+420",
      "code": "CZ"
    },
    {
      "name": "捷克共和国",
      "dial_code": "+45",
      "code": "DK"
    },
    {
      "name": "丹麦",
      "dial_code": "+253",
      "code": "DJ"
    },
    {
      "name": "吉布提",
      "dial_code": "+1 767",
      "code": "DM"
    },
    {
      "name": "多米尼加",
      "dial_code": "+1 849",
      "code": "DO"
    },
    {
      "name": "多米尼加共和国",
      "dial_code": "+593",
      "code": "EC"
    },
    {
      "name": "厄瓜多尔",
      "dial_code": "+20",
      "code": "EG"
    },
    {
      "name": "埃及",
      "dial_code": "+503",
      "code": "SV"
    },
    {
      "name": "萨尔瓦多",
      "dial_code": "+240",
      "code": "GQ"
    },
    {
      "name": "赤道几内亚",
      "dial_code": "+291",
      "code": "ER"
    },
    {
      "name": "厄立特里亚",
      "dial_code": "+372",
      "code": "EE"
    },
    {
      "name": "爱沙尼亚",
      "dial_code": "+251",
      "code": "ET"
    },
    {
      "name": "埃塞俄比亚",
      "dial_code": "+500",
      "code": "FK"
    },
    {
      "name": "福克兰群岛（马尔维纳斯）",
      "dial_code": "+298",
      "code": "FO"
    },
    {
      "name": "法罗群岛",
      "dial_code": "+679",
      "code": "FJ"
    },
    {
      "name": "斐济",
      "dial_code": "+358",
      "code": "FI"
    },
    {
      "name": "芬兰",
      "dial_code": "+33",
      "code": "FR"
    },
    {
      "name": "法国",
      "dial_code": "+594",
      "code": "GF"
    },
    {
      "name": "法属圭亚那",
      "dial_code": "+689",
      "code": "PF"
    },
    {
      "name": "法属波利尼西亚",
      "dial_code": "+241",
      "code": "GA"
    },
    {
      "name": "加蓬",
      "dial_code": "+220",
      "code": "GM"
    },
    {
      "name": "冈比亚",
      "dial_code": "+995",
      "code": "GE"
    },
    {
      "name": "乔治亚州",
      "dial_code": "+49",
      "code": "DE"
    },
    {
      "name": "德国",
      "dial_code": "+233",
      "code": "GH"
    },
    {
      "name": "加纳",
      "dial_code": "+350",
      "code": "GI"
    },
    {
      "name": "直布罗陀",
      "dial_code": "+30",
      "code": "GR"
    },
    {
      "name": "希腊",
      "dial_code": "+299",
      "code": "GL"
    },
    {
      "name": "格陵兰岛",
      "dial_code": "+1 473",
      "code": "GD"
    },
    {
      "name": "格林纳达",
      "dial_code": "+590",
      "code": "GP"
    },
    {
      "name": "瓜德罗普",
      "dial_code": "+1 671",
      "code": "GU"
    },
    {
      "name": "关岛",
      "dial_code": "+502",
      "code": "GT"
    },
    {
      "name": "危地马拉",
      "dial_code": "+44",
      "code": "GG"
    },
    {
      "name": "格恩西岛",
      "dial_code": "+224",
      "code": "GN"
    },
    {
      "name": "几内亚",
      "dial_code": "+245",
      "code": "GW"
    },
    {
      "name": "几内亚比绍",
      "dial_code": "+595",
      "code": "GY"
    },
    {
      "name": "圭亚那",
      "dial_code": "+509",
      "code": "HT"
    },
    {
      "name": "海地",
      "dial_code": "+379",
      "code": "VA"
    },
    {
      "name": "罗马教廷（梵蒂冈城国）",
      "dial_code": "+504",
      "code": "HN"
    },
    {
      "name": "洪都拉斯",
      "dial_code": "+852",
      "code": "HK"
    },
    {
      "name": "香港",
      "dial_code": "+36",
      "code": "HU"
    },
    {
      "name": "匈牙利",
      "dial_code": "+354",
      "code": "IS"
    },
    {
      "name": "冰岛",
      "dial_code": "+91",
      "code": "IN"
    },
    {
      "name": "印度",
      "dial_code": "+62",
      "code": "ID"
    },
    {
      "name": "印度尼西亚",
      "dial_code": "+98",
      "code": "IR"
    },
    {
      "name": "伊朗, 伊朗伊斯兰共和国",
      "dial_code": "+964",
      "code": "IQ"
    },
    {
      "name": "伊拉克",
      "dial_code": "+353",
      "code": "IE"
    },
    {
      "name": "辽宁省",
      "dial_code": "+44",
      "code": "IM"
    },
    {
      "name": "马恩岛",
      "dial_code": "+972",
      "code": "IL"
    },
    {
      "name": "以色列",
      "dial_code": "+972",
      "code": "IL"
    },
    {
      "name": "以色列",
      "dial_code": "+39",
      "code": "IT"
    },
    {
      "name": "意大利",
      "dial_code": "+1 876",
      "code": "JM"
    },
    {
      "name": "牙买加",
      "dial_code": "+81",
      "code": "JP"
    },
    {
      "name": "日本",
      "dial_code": "+44",
      "code": "JE"
    },
    {
      "name": "泽西岛",
      "dial_code": "+962",
      "code": "JO"
    },
    {
      "name": "约旦",
      "dial_code": "+7 7",
      "code": "KZ"
    },
    {
      "name": "哈萨克斯坦",
      "dial_code": "+254",
      "code": "KE"
    },
    {
      "name": "肯尼亚",
      "dial_code": "+686",
      "code": "KI"
    },
    {
      "name": "基里巴斯",
      "dial_code": "+850",
      "code": "KP"
    },
    {
      "name": "韩国，朝鲜民主主义人民共和国",
      "dial_code": "+82",
      "code": "KR"
    },
    {
      "name": "韩国, 大韩民国",
      "dial_code": "+965",
      "code": "KW"
    },
    {
      "name": "科威特",
      "dial_code": "+996",
      "code": "KG"
    },
    {
      "name": "吉尔吉斯斯坦",
      "dial_code": "",
      "code": "AX"
    },
    {
      "name": "老挝人民民主共和国",
      "dial_code": "+856",
      "code": "LA"
    },
    {
      "name": "拉脱维亚",
      "dial_code": "+371",
      "code": "LV"
    },
    {
      "name": "黎巴嫩",
      "dial_code": "+961",
      "code": "LB"
    },
    {
      "name": "莱索托",
      "dial_code": "+266",
      "code": "LS"
    },
    {
      "name": "利比里亚",
      "dial_code": "+231",
      "code": "LR"
    },
    {
      "name": "利比亚",
      "dial_code": "+218",
      "code": "LY"
    },
    {
      "name": "列支敦士登",
      "dial_code": "+423",
      "code": "LI"
    },
    {
      "name": "立陶宛",
      "dial_code": "+370",
      "code": "LT"
    },
    {
      "name": "卢森堡",
      "dial_code": "+352",
      "code": "LU"
    },
    {
      "name": "澳门",
      "dial_code": "+853",
      "code": "MO"
    },
    {
      "name": "马达加斯加",
      "dial_code": "+389",
      "code": "MK"
    },
    {
      "name": "马拉维",
      "dial_code": "+261",
      "code": "MG"
    },
    {
      "name": "马来西亚",
      "dial_code": "+265",
      "code": "MW"
    },
    {
      "name": "马尔代夫",
      "dial_code": "+60",
      "code": "MY"
    },
    {
      "name": "马里",
      "dial_code": "+960",
      "code": "MV"
    },
    {
      "name": "马耳他",
      "dial_code": "+223",
      "code": "ML"
    },
    {
      "name": "马绍尔群岛",
      "dial_code": "+356",
      "code": "MT"
    },
    {
      "name": "马提尼克岛",
      "dial_code": "+692",
      "code": "MH"
    },
    {
      "name": "毛里塔尼亚",
      "dial_code": "+596",
      "code": "MQ"
    },
    {
      "name": "毛里求斯",
      "dial_code": "+222",
      "code": "MR"
    },
    {
      "name": "马约特岛",
      "dial_code": "+230",
      "code": "MU"
    },
    {
      "name": "墨西哥",
      "dial_code": "+262",
      "code": "YT"
    },
    {
      "name": "密克罗尼西亚, 密克罗尼西亚联邦",
      "dial_code": "+52",
      "code": "MX"
    },
    {
      "name": "摩尔多瓦，摩尔多瓦共和国",
      "dial_code": "+691",
      "code": "FM"
    },
    {
      "name": "摩纳哥",
      "dial_code": "+373",
      "code": "MD"
    },
    {
      "name": "蒙古国",
      "dial_code": "+377",
      "code": "MC"
    },
    {
      "name": "黑山",
      "dial_code": "+976",
      "code": "MN"
    },
    {
      "name": "蒙特塞拉特",
      "dial_code": "+382",
      "code": "ME"
    },
    {
      "name": "摩洛哥",
      "dial_code": "+1664",
      "code": "MS"
    },
    {
      "name": "莫桑比克",
      "dial_code": "+212",
      "code": "MA"
    },
    {
      "name": "缅甸",
      "dial_code": "+258",
      "code": "MZ"
    },
    {
      "name": "纳米比亚",
      "dial_code": "+95",
      "code": "MM"
    },
    {
      "name": "瑙鲁",
      "dial_code": "+264",
      "code": "NA"
    },
    {
      "name": "尼泊尔",
      "dial_code": "+674",
      "code": "NR"
    },
    {
      "name": "荷兰",
      "dial_code": "+977",
      "code": "NP"
    },
    {
      "name": "荷属安的列斯群岛",
      "dial_code": "+31",
      "code": "NL"
    },
    {
      "name": "新喀里多尼亚",
      "dial_code": "+599",
      "code": "AN"
    },
    {
      "name": "新西兰",
      "dial_code": "+687",
      "code": "NC"
    },
    {
      "name": "尼加拉瓜",
      "dial_code": "+64",
      "code": "NZ"
    },
    {
      "name": "尼日尔",
      "dial_code": "+505",
      "code": "NI"
    },
    {
      "name": "尼日利亚",
      "dial_code": "+227",
      "code": "NE"
    },
    {
      "name": "纽埃",
      "dial_code": "+234",
      "code": "NG"
    },
    {
      "name": "诺福克岛",
      "dial_code": "+683",
      "code": "NU"
    },
    {
      "name": "北马其顿",
      "dial_code": "+672",
      "code": "NF"
    },
    {
      "name": "北马里亚纳群岛",
      "dial_code": "+1 670",
      "code": "MP"
    },
    {
      "name": "挪威",
      "dial_code": "+47",
      "code": "NO"
    },
    {
      "name": "阿曼",
      "dial_code": "+968",
      "code": "OM"
    },
    {
      "name": "巴基斯坦",
      "dial_code": "+92",
      "code": "PK"
    },
    {
      "name": "帕劳",
      "dial_code": "+680",
      "code": "PW"
    },
    {
      "name": "巴勒斯坦，巴勒斯坦国",
      "dial_code": "+970",
      "code": "PS"
    },
    {
      "name": "巴拿马",
      "dial_code": "+507",
      "code": "PA"
    },
    {
      "name": "巴布亚新几内亚",
      "dial_code": "+675",
      "code": "PG"
    },
    {
      "name": "巴拉圭",
      "dial_code": "+595",
      "code": "PY"
    },
    {
      "name": "秘鲁",
      "dial_code": "+51",
      "code": "PE"
    },
    {
      "name": "菲律宾",
      "dial_code": "+63",
      "code": "PH"
    },
    {
      "name": "皮特凯恩",
      "dial_code": "+872",
      "code": "PN"
    },
    {
      "name": "波兰",
      "dial_code": "+48",
      "code": "PL"
    },
    {
      "name": "葡国",
      "dial_code": "+351",
      "code": "PT"
    },
    {
      "name": "波多黎各",
      "dial_code": "+1 939",
      "code": "PR"
    },
    {
      "name": "卡塔尔",
      "dial_code": "+974",
      "code": "QA"
    },
    {
      "name": "（非洲法属）留尼汪（岛）",
      "dial_code": "+262",
      "code": "RE"
    },
    {
      "name": "罗马尼亚",
      "dial_code": "+40",
      "code": "RO"
    },
    {
      "name": "俄罗斯",
      "dial_code": "+7",
      "code": "RU"
    },
    {
      "name": "卢旺达",
      "dial_code": "+250",
      "code": "RW"
    },
    {
      "name": "圣巴特勒米",
      "dial_code": "+590",
      "code": "BL"
    },
    {
      "name": "圣赫勒拿、阿森松和特里斯坦-达库尼亚岛",
      "dial_code": "+290",
      "code": "SH"
    },
    {
      "name": "圣基茨和尼维斯",
      "dial_code": "+1 869",
      "code": "KN"
    },
    {
      "name": "圣卢西亚",
      "dial_code": "+1 758",
      "code": "LC"
    },
    {
      "name": "圣马丁",
      "dial_code": "+590",
      "code": "MF"
    },
    {
      "name": "圣皮埃尔岛和密克隆岛",
      "dial_code": "+508",
      "code": "PM"
    },
    {
      "name": "圣文森特和格林纳丁斯",
      "dial_code": "+1 784",
      "code": "VC"
    },
    {
      "name": "萨摩亚",
      "dial_code": "+685",
      "code": "WS"
    },
    {
      "name": "圣马力诺",
      "dial_code": "+378",
      "code": "SM"
    },
    {
      "name": "圣多美和普林西比",
      "dial_code": "+239",
      "code": "ST"
    },
    {
      "name": "沙特阿拉伯",
      "dial_code": "+966",
      "code": "SA"
    },
    {
      "name": "塞内加尔",
      "dial_code": "+221",
      "code": "SN"
    },
    {
      "name": "塞尔维亚",
      "dial_code": "+381",
      "code": "RS"
    },
    {
      "name": "塞舌尔",
      "dial_code": "+248",
      "code": "SC"
    },
    {
      "name": "塞拉里昂",
      "dial_code": "+232",
      "code": "SL"
    },
    {
      "name": "新加坡",
      "dial_code": "+65",
      "code": "SG"
    },
    {
      "name": "斯洛伐克",
      "dial_code": "+421",
      "code": "SK"
    },
    {
      "name": "斯洛文尼亚",
      "dial_code": "+386",
      "code": "SI"
    },
    {
      "name": "所罗门群岛",
      "dial_code": "+677",
      "code": "SB"
    },
    {
      "name": "索马里",
      "dial_code": "+252",
      "code": "SO"
    },
    {
      "name": "南非",
      "dial_code": "+27",
      "code": "ZA"
    },
    {
      "name": "南乔治亚岛和南桑威奇群岛",
      "dial_code": "+500",
      "code": "GS"
    },
    {
      "name": "西班牙",
      "dial_code": "+34",
      "code": "ES"
    },
    {
      "name": "斯里兰卡",
      "dial_code": "+94",
      "code": "LK"
    },
    {
      "name": "苏丹",
      "dial_code": "+249",
      "code": "SD"
    },
    {
      "name": "苏里南",
      "dial_code": "+597",
      "code": "SR"
    },
    {
      "name": "斯瓦尔巴群岛和扬马延岛",
      "dial_code": "+47",
      "code": "SJ"
    },
    {
      "name": "斯威士兰",
      "dial_code": "+268",
      "code": "SZ"
    },
    {
      "name": "瑞典",
      "dial_code": "+46",
      "code": "SE"
    },
    {
      "name": "瑞士",
      "dial_code": "+41",
      "code": "CH"
    },
    {
      "name": "阿拉伯叙利亚共和国",
      "dial_code": "+963",
      "code": "SY"
    },
    {
      "name": "台湾",
      "dial_code": "+886",
      "code": "TW"
    },
    {
      "name": "塔吉克斯坦",
      "dial_code": "+992",
      "code": "TJ"
    },
    {
      "name": "坦桑尼亚联合共和国，坦桑尼亚",
      "dial_code": "+255",
      "code": "TZ"
    },
    {
      "name": "泰国",
      "dial_code": "+66",
      "code": "TH"
    },
    {
      "name": "东帝汶",
      "dial_code": "+670",
      "code": "TL"
    },
    {
      "name": "多哥",
      "dial_code": "+228",
      "code": "TG"
    },
    {
      "name": "托克劳群岛",
      "dial_code": "+690",
      "code": "TK"
    },
    {
      "name": "汤加",
      "dial_code": "+676",
      "code": "TO"
    },
    {
      "name": "特立尼达和多巴哥",
      "dial_code": "+1 868",
      "code": "TT"
    },
    {
      "name": "突尼斯",
      "dial_code": "+216",
      "code": "TN"
    },
    {
      "name": "土耳其",
      "dial_code": "+90",
      "code": "TR"
    },
    {
      "name": "土库曼斯坦",
      "dial_code": "+993",
      "code": "TM"
    },
    {
      "name": "特克斯和凯科斯群岛",
      "dial_code": "+1 649",
      "code": "TC"
    },
    {
      "name": "图瓦卢",
      "dial_code": "+688",
      "code": "TV"
    },
    {
      "name": "乌干达",
      "dial_code": "+256",
      "code": "UG"
    },
    {
      "name": "乌克兰",
      "dial_code": "+380",
      "code": "UA"
    },
    {
      "name": "阿拉伯联合酋长国",
      "dial_code": "+971",
      "code": "AE"
    },
    {
      "name": "大不列颠及北爱尔兰联合王国",
      "dial_code": "+44",
      "code": "GB"
    },
    {
      "name": "美国",
      "dial_code": "+1",
      "code": "US"
    },
    {
      "name": "乌拉圭",
      "dial_code": "+598",
      "code": "UY"
    },
    {
      "name": "乌兹别克斯坦",
      "dial_code": "+998",
      "code": "UZ"
    },
    {
      "name": "瓦努阿图",
      "dial_code": "+678",
      "code": "VU"
    },
    {
      "name": "委内瑞拉，委内瑞拉玻利瓦尔共和国",
      "dial_code": "+58",
      "code": "VE"
    },
    {
      "name": "越南",
      "dial_code": "+84",
      "code": "VN"
    },
    {
      "name": "英属维尔京群岛",
      "dial_code": "+1 284",
      "code": "VG"
    },
    {
      "name": "维尔京群岛（美国）",
      "dial_code": "+1 340",
      "code": "VI"
    },
    {
      "name": "瓦利斯和富图纳",
      "dial_code": "+681",
      "code": "WF"
    },
    {
      "name": "也门",
      "dial_code": "+967",
      "code": "YE"
    },
    {
      "name": "赞比亚",
      "dial_code": "+260",
      "code": "ZM"
    },
    {
      "name": "津巴布韦",
      "dial_code": "+263",
      "code": "ZW"
    }
  ]
}